{
  "type": "FeatureCollection",
  "name": "sql_statement",
  "crs": {
    "type": "name",
    "properties": {
      "name": "urn:ogc:def:crs:OGC:1.3:CRS84"
    }
  },
  "features": [
    {
      "type": "Feature",
      "properties": {
        "uuid": "2734224c-40a0-4259-8453-369c671d86da",
        "layer_id": "udk_nat_underground_cover_pg",
        "timeframe": null,
        "feature_class": "Fungal Forest",
        "feature_rank": 2,
        "is_visible": true,
        "is_labeled": true,
        "needs_review": false,
        "review_notes": null,
        "img_url": null,
        "last_edited": "2026-07-14",
        "last_editor": "postgres",
        "name_en": "Araumycos",
        "name_ru": "Араумикос",
        "name_abb_en": null,
        "name_abb_ru": null,
        "label_en": "Araumycos",
        "label_ru": "Араумикос",
        "descr_en": "A colossal sentient fungus organism occupying the Underdark beneath the High Forest, spanning from the Shining Falls to the Lost Peaks and from Tall Trees to the Hall of Four Ghosts. It is a spongy, grey, humid mass resembling a brain, immune to magic and resistant to psionic energy. After the Spellplague, it dominated millions of myconids and projected mind-controlling dreams.",
        "descr_ru": "Колоссальный разумный грибной организм, занимающий Подземье под Высоким Лесом, простирающийся от Сияющих Водопадов до Затерянных Вершин и от Высоких Деревьев до Зала Четырёх Призраков. Это губчатая, серая, влажная масса, напоминающая мозг, невосприимчивая к магии и устойчивая к псионической энергии. После Чумного Заклинания он подчинил миллионы миконидов и проецировал контролирующие разум сны.",
        "descr_html_en": "<!DOCTYPE HTML PUBLIC \"-//W3C//DTD HTML 4.0//EN\" \"http://www.w3.org/TR/REC-html40/strict.dtd\">\n<html><head><meta name=\"qrichtext\" content=\"1\" /><style type=\"text/css\">\np, li { white-space: pre-wrap; }\n</style></head><body style=\" font-family:'MS Shell Dlg 2'; font-size:10pt; font-weight:400; font-style:normal;\">\n<p style=\" margin-top:0px; margin-bottom:0px; margin-left:0px; margin-right:0px; -qt-block-indent:0; text-indent:0px;\">—</p></body></html>",
        "descr_html_ru": null,
        "url_en": "https://forgottenrealms.fandom.com/wiki/Araumycos",
        "url_ru": null,
        "source_name": "WotC Underdark 3e",
        "source_url": "https://forgottenrealms.fandom.com/wiki/Underdark_(sourcebook)",
        "dnd_editions_str": "3e, 5e",
        "feature_levels_str": "Upperdark",
        "extra_str": "topical_tags: [\"fungus\", \"underdark\", \"sentient\", \"organism\", \"spores\", \"magic-immune\", \"psionic-resistant\", \"dreams\", \"myconid\"] | related_cultures_tags: [\"dwarves\", \"elves\", \"drow\"] | related_factions_tags: [\"Ammarindar\", \"Eaerlann\", \"Vyshaantar Empire\", \"Shade Enclave\"] | related_location_tags: [\"Northdark\", \"Upperdark\", \"High Forest\", \"Shining Falls\", \"Lost Peaks\", \"Tall Trees\", \"Hall of Four Ghosts\", \"Blacktooth Rock\"]",
        "location_en": "western Faerûn → Upperdark → Northdark",
        "name_alt_en_str": "King Araumycos",
        "location_ru": "западный Фаэрун → Верхнее Подземье → Нортдарк",
        "name_alt_ru_str": "Король Араумикос",
        "geog_extent_area_sq_km": 97654.0,
        "geog_extent_area_sq_miles": 37704.0,
        "geog_extent_perimeter_km": 1693.0,
        "geog_extent_perimeter_miles": 1052.0,
        "geog_extent_centroid_md": "48° 09′ 37″ N 015° 08′ 59″ W",
        "geog_extent_centroid_fria": "48° 09′ 37″ N 068° 37′ 52″ W",
        "geog_extent_length_km": null,
        "geog_extent_length_miles": null,
        "geog_extent_bbox_md": {
          "east": -12.532739659023,
          "west": -17.277855228886,
          "north": 49.84946808884761,
          "south": 45.71338709847314
        },
        "geog_extent_bbox_fria": {
          "east": -66.0142411470128,
          "west": -70.75935671687607,
          "north": 49.84946808884761,
          "south": 45.71338709847314
        },
        "name_it": "Araumycos",
        "name_abb_it": null,
        "label_it": "Araumycos",
        "descr_it": "Un colossale organismo fungino senziente che occupa il Sottosuolo sotto la Grande Foresta, estendendosi dalle Cascate Splendenti ai Picchi Perduti e dagli Alberi Altissimi alla Sala dei Quattro Fantasmi. È una massa spugnosa, grigia e umida che ricorda un cervello, immune alla magia e resistente all'energia psionica. Dopo la Piaga degli Incantesimi, ha dominato milioni di micònidi e proiettato sogni che controllano la mente.",
        "descr_html_it": null,
        "url_it": null,
        "location_it": "Faerûn occidentale → Upperdark → Sottosuolo Settentrionale",
        "name_alt_it_str": "Re Araumycos",
        "topical_tags": "fungus, underdark, sentient, organism, spores, magic-immune, psionic-resistant, dreams, myconid",
        "related_location_tags": "Northdark, Upperdark, High Forest, Shining Falls, Lost Peaks, Tall Trees, Hall of Four Ghosts, Blacktooth Rock",
        "related_cultures_tags": "dwarves, elves, drow",
        "related_factions_tags": "Ammarindar, Eaerlann, Vyshaantar Empire, Shade Enclave"
      },
      "geometry": {
        "type": "MultiPolygon",
        "coordinates": [
          [
            [
              [
                -69.52790218252508,
                49.50144832913973
              ],
              [
                -69.63498518551214,
                49.421136076899444
              ],
              [
                -69.66844862394558,
                49.34082382465917
              ],
              [
                -69.66844862394558,
                49.2471261970455
              ],
              [
                -69.67514131163227,
                49.153428569431846
              ],
              [
                -69.71529743775241,
                49.05303825413149
              ],
              [
                -69.84245850379952,
                48.9794186895779
              ],
              [
                -69.98969763290671,
                48.91918450039769
              ],
              [
                -70.1302440743272,
                48.86564299890417
              ],
              [
                -70.30425395418114,
                48.792023434350575
              ],
              [
                -70.41802964485487,
                48.671555055990154
              ],
              [
                -70.49164920940846,
                48.59124280374988
              ],
              [
                -70.5987322123955,
                48.5042378638229
              ],
              [
                -70.71920059075592,
                48.43061829926931
              ],
              [
                -70.75935671687607,
                48.336920671655655
              ],
              [
                -70.72589327844261,
                48.26999379478875
              ],
              [
                -70.62550296314227,
                48.216452293295234
              ],
              [
                -70.5987322123955,
                48.18968154254847
              ],
              [
                -70.6054249000822,
                48.12275466568157
              ],
              [
                -70.71920059075592,
                47.975515536574385
              ],
              [
                -70.73927865381599,
                47.91528134739418
              ],
              [
                -70.72589327844261,
                47.82827640746721
              ],
              [
                -70.5987322123955,
                47.747964155226924
              ],
              [
                -70.49834189709514,
                47.72119340448017
              ],
              [
                -70.3243320172412,
                47.694422653733405
              ],
              [
                -70.24401976500093,
                47.660959215299954
              ],
              [
                -70.22394170194086,
                47.620803089179816
              ],
              [
                -70.21724901425416,
                47.52710546156615
              ],
              [
                -70.29086857880776,
                47.46017858469925
              ],
              [
                -70.37787351873473,
                47.379866332458974
              ],
              [
                -70.4648784586617,
                47.259397954098546
              ],
              [
                -70.5384980232153,
                47.17908570185827
              ],
              [
                -70.6054249000822,
                47.105466137304674
              ],
              [
                -70.62550296314227,
                47.018461197377704
              ],
              [
                -70.61881027545557,
                46.93145625745073
              ],
              [
                -70.57196146164874,
                46.85114400521046
              ],
              [
                -70.49164920940846,
                46.784217128343556
              ],
              [
                -70.37787351873473,
                46.79090981603024
              ],
              [
                -70.30425395418114,
                46.84445131752376
              ],
              [
                -70.22394170194086,
                46.857836692897145
              ],
              [
                -70.1971709511941,
                46.784217128343556
              ],
              [
                -70.2574051403743,
                46.71059756378996
              ],
              [
                -70.36448814336134,
                46.64367068692306
              ],
              [
                -70.42472233254156,
                46.543280371622714
              ],
              [
                -70.45149308328833,
                46.46966080706912
              ],
              [
                -70.4715711463484,
                46.34249974102201
              ],
              [
                -70.43810770791494,
                46.30903630258856
              ],
              [
                -70.35779545567466,
                46.268880176468414
              ],
              [
                -70.23063438962755,
                46.24210942572166
              ],
              [
                -70.11685869895382,
                46.302343614901865
              ],
              [
                -70.0633171974603,
                46.32911436564863
              ],
              [
                -69.92277075603981,
                46.39604124251553
              ],
              [
                -69.83576581611283,
                46.38265586714215
              ],
              [
                -69.78222431461931,
                46.32242167796194
              ],
              [
                -69.78222431461931,
                46.235416738034964
              ],
              [
                -69.78222431461931,
                46.181875236541444
              ],
              [
                -69.80230237767938,
                46.06809954586772
              ],
              [
                -69.78891700230601,
                45.92755310444722
              ],
              [
                -69.74206818849918,
                45.85393353989363
              ],
              [
                -69.69521937469234,
                45.813777413773494
              ],
              [
                -69.58144368401861,
                45.75354322459328
              ],
              [
                -69.33381423961107,
                45.71338709847314
              ],
              [
                -69.21334586125066,
                45.72007978615983
              ],
              [
                -69.15311167207044,
                45.78031397534004
              ],
              [
                -69.0460286690834,
                45.86062622758032
              ],
              [
                -68.95233104146975,
                45.9409384798206
              ],
              [
                -68.86532610154278,
                46.04802148280764
              ],
              [
                -68.78501384930249,
                46.20864598728821
              ],
              [
                -68.70470159706221,
                46.31572899027525
              ],
              [
                -68.59761859407517,
                46.49643155781588
              ],
              [
                -68.58423321870178,
                46.55666574699609
              ],
              [
                -68.52399902952158,
                46.737368314536724
              ],
              [
                -68.50392096646151,
                46.81098787909031
              ],
              [
                -68.4369940895946,
                46.911378194390664
              ],
              [
                -68.40353065116116,
                46.9515343205108
              ],
              [
                -68.38345258810108,
                46.98499775894425
              ],
              [
                -68.32991108660757,
                46.98499775894425
              ],
              [
                -68.28975496048743,
                46.9515343205108
              ],
              [
                -68.26298420974067,
                46.87122206827053
              ],
              [
                -68.2362134589939,
                46.737368314536724
              ],
              [
                -68.22282808362053,
                46.630285311549684
              ],
              [
                -68.19605733287376,
                46.543280371622714
              ],
              [
                -68.14920851906693,
                46.44958274400905
              ],
              [
                -68.0956670175734,
                46.39604124251553
              ],
              [
                -67.98858401458637,
                46.40273393020222
              ],
              [
                -67.9015790746594,
                46.44958274400905
              ],
              [
                -67.8346521977925,
                46.5499730593094
              ],
              [
                -67.80118875935905,
                46.6168999361763
              ],
              [
                -67.74764725786552,
                46.73067562685003
              ],
              [
                -67.72087650711876,
                46.84445131752376
              ],
              [
                -67.66064231793855,
                46.911378194390664
              ],
              [
                -67.60040812875835,
                47.05861732349785
              ],
              [
                -67.54686662726482,
                47.16570032648489
              ],
              [
                -67.45986168733785,
                47.35309558171221
              ],
              [
                -67.38624212278427,
                47.39994439551904
              ],
              [
                -67.28585180748391,
                47.4267151462658
              ],
              [
                -67.20553955524363,
                47.46017858469925
              ],
              [
                -67.13861267837673,
                47.47356396007263
              ],
              [
                -67.07168580150983,
                47.48025664775932
              ],
              [
                -66.91106129702926,
                47.500334710819395
              ],
              [
                -66.84413442016236,
                47.54049083693953
              ],
              [
                -66.65673916493505,
                47.620803089179816
              ],
              [
                -66.54296347426131,
                47.65426652761327
              ],
              [
                -66.48942197276779,
                47.68103727836002
              ],
              [
                -66.40910972052751,
                47.747964155226924
              ],
              [
                -66.34218284366061,
                47.848354470527276
              ],
              [
                -66.26856327910701,
                47.988900911947766
              ],
              [
                -66.23509984067357,
                48.05582778881467
              ],
              [
                -66.20163640224011,
                48.1026766026215
              ],
              [
                -66.18825102686674,
                48.18968154254847
              ],
              [
                -66.22840715298688,
                48.283379170162135
              ],
              [
                -66.26856327910701,
                48.303457233222204
              ],
              [
                -66.36895359440737,
                48.35030604702903
              ],
              [
                -66.42918778358758,
                48.423925611582625
              ],
              [
                -66.43588047127427,
                48.51762323919628
              ],
              [
                -66.40910972052751,
                48.584550116063184
              ],
              [
                -66.33549015597391,
                48.638091617556704
              ],
              [
                -66.18155833918004,
                48.71840386979699
              ],
              [
                -66.12801683768653,
                48.7786380589772
              ],
              [
                -66.08786071156639,
                48.88572106196424
              ],
              [
                -66.05439727313293,
                48.96603331420452
              ],
              [
                -66.0142411470128,
                49.13335050637177
              ],
              [
                -66.02093383469949,
                49.240433509358816
              ],
              [
                -66.04101189775956,
                49.347516512345855
              ],
              [
                -66.17486565149336,
                49.49475564145304
              ],
              [
                -66.2819486544804,
                49.56837520600663
              ],
              [
                -66.38903165746744,
                49.63530208287353
              ],
              [
                -66.49611466045448,
                49.70892164742712
              ],
              [
                -66.58311960038145,
                49.78254121198071
              ],
              [
                -66.73705141717532,
                49.82939002578754
              ],
              [
                -66.83744173247568,
                49.84946808884761
              ],
              [
                -67.04491505076307,
                49.84946808884761
              ],
              [
                -67.05830042613646,
                49.82269733810085
              ],
              [
                -67.11853461531666,
                49.64199477056022
              ],
              [
                -67.11853461531666,
                49.60183864444008
              ],
              [
                -67.0984565522566,
                49.508141016826414
              ],
              [
                -67.0984565522566,
                49.39436532615269
              ],
              [
                -67.1586907414368,
                49.34082382465917
              ],
              [
                -67.26577374442384,
                49.327438449285786
              ],
              [
                -67.3661640597242,
                49.347516512345855
              ],
              [
                -67.50001781345799,
                49.367594575405924
              ],
              [
                -67.58702275338497,
                49.36090188771924
              ],
              [
                -67.72756919480545,
                49.33413113697247
              ],
              [
                -67.80788144704573,
                49.32074576159909
              ],
              [
                -67.96181326383962,
                49.32074576159909
              ],
              [
                -68.06889626682666,
                49.35420920003254
              ],
              [
                -68.1090523929468,
                49.42782876458614
              ],
              [
                -68.14251583138024,
                49.508141016826414
              ],
              [
                -68.1759792698137,
                49.541604455259865
              ],
              [
                -68.27636958511404,
                49.561682518319934
              ],
              [
                -68.32991108660757,
                49.53491176757318
              ],
              [
                -68.43030140190791,
                49.521526392199796
              ],
              [
                -68.57084784332841,
                49.5884532690667
              ],
              [
                -68.58423321870178,
                49.608531332126766
              ],
              [
                -68.65116009556868,
                49.628609395186835
              ],
              [
                -68.76493578624242,
                49.64868745824691
              ],
              [
                -68.81178460004925,
                49.64199477056022
              ],
              [
                -68.8452480384827,
                49.56837520600663
              ],
              [
                -68.87871147691615,
                49.47467757839296
              ],
              [
                -68.89209685228953,
                49.41444338921276
              ],
              [
                -68.90548222766292,
                49.33413113697247
              ],
              [
                -68.91886760303629,
                49.2471261970455
              ],
              [
                -68.94563835378305,
                49.21366275861205
              ],
              [
                -68.99917985527657,
                49.20027738323867
              ],
              [
                -69.07279941983016,
                49.23374082167212
              ],
              [
                -69.14641898438376,
                49.30066769853902
              ],
              [
                -69.22003854893734,
                49.39436532615269
              ],
              [
                -69.2468092996841,
                49.41444338921276
              ],
              [
                -69.30704348886431,
                49.467984890706276
              ],
              [
                -69.3873557411046,
                49.49475564145304
              ],
              [
                -69.52790218252508,
                49.50144832913973
              ]
            ]
          ]
        ]
      }
    }
  ]
}