{
  "type": "FeatureCollection",
  "name": "sql_statement",
  "crs": {
    "type": "name",
    "properties": {
      "name": "urn:ogc:def:crs:OGC:1.3:CRS84"
    }
  },
  "features": [
    {
      "type": "Feature",
      "properties": {
        "uuid": "7f49e0de-bd0a-48ba-a59f-eeaa97c83e3e",
        "layer_id": "udk_nat_landmarks_pt",
        "timeframe": null,
        "feature_class": "Volcanic Activity",
        "feature_rank": 3,
        "is_visible": true,
        "is_labeled": true,
        "needs_review": false,
        "review_notes": null,
        "img_url": null,
        "last_edited": "2026-06-30",
        "last_editor": "postgres",
        "name_en": null,
        "name_ru": null,
        "name_abb_en": null,
        "name_abb_ru": null,
        "label_en": null,
        "label_ru": null,
        "descr_en": null,
        "descr_ru": null,
        "descr_html_en": "<!DOCTYPE HTML PUBLIC \"-//W3C//DTD HTML 4.0//EN\" \"http://www.w3.org/TR/REC-html40/strict.dtd\">\n<html><head><meta name=\"qrichtext\" content=\"1\" /><style type=\"text/css\">\np, li { white-space: pre-wrap; }\n</style></head><body style=\" font-family:'MS Shell Dlg 2'; font-size:10pt; font-weight:400; font-style:normal;\">\n<p style=\" margin-top:0px; margin-bottom:0px; margin-left:0px; margin-right:0px; -qt-block-indent:0; text-indent:0px;\">()</p></body></html>",
        "descr_html_ru": "<!DOCTYPE HTML PUBLIC \"-//W3C//DTD HTML 4.0//EN\" \"http://www.w3.org/TR/REC-html40/strict.dtd\">\n<html><head><meta name=\"qrichtext\" content=\"1\" /><style type=\"text/css\">\np, li { white-space: pre-wrap; }\n</style></head><body style=\" font-family:'MS Shell Dlg 2'; font-size:10pt; font-weight:400; font-style:normal;\">\n<p style=\" margin-top:0px; margin-bottom:0px; margin-left:0px; margin-right:0px; -qt-block-indent:0; text-indent:0px;\">()</p></body></html>",
        "url_en": null,
        "url_ru": null,
        "source_name": "WotC Underdark 3e",
        "source_url": "https://forgottenrealms.fandom.com/wiki/Underdark_(sourcebook)",
        "dnd_editions_str": "2e, 3e, 5e",
        "feature_levels_str": "Lowerdark, Middledark, Upperdark",
        "extra_str": null,
        "location_en": "southern Faerûn → Underdark",
        "name_alt_en_str": null,
        "location_ru": "южный Фаэрун → Подземье",
        "name_alt_ru_str": null,
        "geog_extent_centroid_md": "26° 17′ 25″ N 012° 48′ 26″ E",
        "geog_extent_centroid_fria": "26° 17′ 25″ N 040° 40′ 26″ W",
        "geog_extent_area_sq_km": null,
        "geog_extent_area_sq_miles": null,
        "geog_extent_length_km": null,
        "geog_extent_length_miles": null,
        "geog_extent_perimeter_km": null,
        "geog_extent_perimeter_miles": null,
        "geog_extent_bbox_md": null,
        "geog_extent_bbox_fria": null,
        "name_it": null,
        "name_abb_it": null,
        "label_it": null,
        "descr_it": null,
        "descr_html_it": null,
        "url_it": null,
        "location_it": "Faerûn meridionale → Underdark",
        "name_alt_it_str": null,
        "topical_tags": "",
        "related_location_tags": "",
        "related_cultures_tags": "",
        "related_factions_tags": ""
      },
      "geometry": {
        "type": "MultiPoint",
        "coordinates": [
          [
            -40.67415572814105,
            26.29050740811837
          ]
        ]
      }
    },
    {
      "type": "Feature",
      "properties": {
        "uuid": "39aa2719-44fc-46bc-a770-4f97d6220aae",
        "layer_id": "udk_nat_landmarks_pt",
        "timeframe": null,
        "feature_class": "Volcanic Activity",
        "feature_rank": 3,
        "is_visible": true,
        "is_labeled": true,
        "needs_review": false,
        "review_notes": null,
        "img_url": null,
        "last_edited": "2026-06-30",
        "last_editor": "postgres",
        "name_en": null,
        "name_ru": null,
        "name_abb_en": null,
        "name_abb_ru": null,
        "label_en": null,
        "label_ru": null,
        "descr_en": null,
        "descr_ru": null,
        "descr_html_en": "<!DOCTYPE HTML PUBLIC \"-//W3C//DTD HTML 4.0//EN\" \"http://www.w3.org/TR/REC-html40/strict.dtd\">\n<html><head><meta name=\"qrichtext\" content=\"1\" /><style type=\"text/css\">\np, li { white-space: pre-wrap; }\n</style></head><body style=\" font-family:'MS Shell Dlg 2'; font-size:10pt; font-weight:400; font-style:normal;\">\n<p style=\" margin-top:0px; margin-bottom:0px; margin-left:0px; margin-right:0px; -qt-block-indent:0; text-indent:0px;\">()</p></body></html>",
        "descr_html_ru": "<!DOCTYPE HTML PUBLIC \"-//W3C//DTD HTML 4.0//EN\" \"http://www.w3.org/TR/REC-html40/strict.dtd\">\n<html><head><meta name=\"qrichtext\" content=\"1\" /><style type=\"text/css\">\np, li { white-space: pre-wrap; }\n</style></head><body style=\" font-family:'MS Shell Dlg 2'; font-size:10pt; font-weight:400; font-style:normal;\">\n<p style=\" margin-top:0px; margin-bottom:0px; margin-left:0px; margin-right:0px; -qt-block-indent:0; text-indent:0px;\">()</p></body></html>",
        "url_en": null,
        "url_ru": null,
        "source_name": "WotC Underdark 3e",
        "source_url": "https://forgottenrealms.fandom.com/wiki/Underdark_(sourcebook)",
        "dnd_editions_str": "2e, 3e, 5e",
        "feature_levels_str": "Lowerdark, Middledark, Upperdark",
        "extra_str": null,
        "location_en": "south-western Faerûn → Underdark → Old Shanatar",
        "name_alt_en_str": null,
        "location_ru": "юго-западный Фаэрун → Подземье → Старый Шанатар",
        "name_alt_ru_str": null,
        "geog_extent_centroid_md": "24° 35′ 54″ N 008° 55′ 59″ W",
        "geog_extent_centroid_fria": "24° 35′ 54″ N 062° 24′ 52″ W",
        "geog_extent_area_sq_km": null,
        "geog_extent_area_sq_miles": null,
        "geog_extent_length_km": null,
        "geog_extent_length_miles": null,
        "geog_extent_perimeter_km": null,
        "geog_extent_perimeter_miles": null,
        "geog_extent_bbox_md": null,
        "geog_extent_bbox_fria": null,
        "name_it": null,
        "name_abb_it": null,
        "label_it": null,
        "descr_it": null,
        "descr_html_it": null,
        "url_it": null,
        "location_it": "Faerûn sud-occidentale → Underdark → Antico Shanatar",
        "name_alt_it_str": null,
        "topical_tags": "",
        "related_location_tags": "",
        "related_cultures_tags": "",
        "related_factions_tags": ""
      },
      "geometry": {
        "type": "MultiPoint",
        "coordinates": [
          [
            -62.4146205128052,
            24.598376945488184
          ]
        ]
      }
    },
    {
      "type": "Feature",
      "properties": {
        "uuid": "08591358-b384-409e-9eb8-8f2495dc7c03",
        "layer_id": "udk_nat_landmarks_pt",
        "timeframe": null,
        "feature_class": "Volcanic Activity",
        "feature_rank": 3,
        "is_visible": true,
        "is_labeled": true,
        "needs_review": false,
        "review_notes": null,
        "img_url": null,
        "last_edited": "2026-06-30",
        "last_editor": "postgres",
        "name_en": null,
        "name_ru": null,
        "name_abb_en": null,
        "name_abb_ru": null,
        "label_en": null,
        "label_ru": null,
        "descr_en": null,
        "descr_ru": null,
        "descr_html_en": "<!DOCTYPE HTML PUBLIC \"-//W3C//DTD HTML 4.0//EN\" \"http://www.w3.org/TR/REC-html40/strict.dtd\">\n<html><head><meta name=\"qrichtext\" content=\"1\" /><style type=\"text/css\">\np, li { white-space: pre-wrap; }\n</style></head><body style=\" font-family:'MS Shell Dlg 2'; font-size:10pt; font-weight:400; font-style:normal;\">\n<p style=\" margin-top:0px; margin-bottom:0px; margin-left:0px; margin-right:0px; -qt-block-indent:0; text-indent:0px;\">()</p></body></html>",
        "descr_html_ru": "<!DOCTYPE HTML PUBLIC \"-//W3C//DTD HTML 4.0//EN\" \"http://www.w3.org/TR/REC-html40/strict.dtd\">\n<html><head><meta name=\"qrichtext\" content=\"1\" /><style type=\"text/css\">\np, li { white-space: pre-wrap; }\n</style></head><body style=\" font-family:'MS Shell Dlg 2'; font-size:10pt; font-weight:400; font-style:normal;\">\n<p style=\" margin-top:0px; margin-bottom:0px; margin-left:0px; margin-right:0px; -qt-block-indent:0; text-indent:0px;\">()</p></body></html>",
        "url_en": null,
        "url_ru": null,
        "source_name": "WotC Underdark 3e",
        "source_url": "https://forgottenrealms.fandom.com/wiki/Underdark_(sourcebook)",
        "dnd_editions_str": "2e, 3e, 5e",
        "feature_levels_str": "Lowerdark, Middledark, Upperdark",
        "extra_str": null,
        "location_en": "southern Faerûn → Underdark → Great Bhaerynden",
        "name_alt_en_str": null,
        "location_ru": "южный Фаэрун → Подземье → Великий Бхаэринден",
        "name_alt_ru_str": null,
        "geog_extent_centroid_md": "22° 24′ 44″ N 003° 40′ 02″ E",
        "geog_extent_centroid_fria": "22° 24′ 44″ N 049° 48′ 50″ W",
        "geog_extent_area_sq_km": null,
        "geog_extent_area_sq_miles": null,
        "geog_extent_length_km": null,
        "geog_extent_length_miles": null,
        "geog_extent_perimeter_km": null,
        "geog_extent_perimeter_miles": null,
        "geog_extent_bbox_md": null,
        "geog_extent_bbox_fria": null,
        "name_it": null,
        "name_abb_it": null,
        "label_it": null,
        "descr_it": null,
        "descr_html_it": null,
        "url_it": null,
        "location_it": "Faerûn meridionale → Underdark → Grande Bhaerynden",
        "name_alt_it_str": null,
        "topical_tags": "",
        "related_location_tags": "",
        "related_cultures_tags": "",
        "related_factions_tags": ""
      },
      "geometry": {
        "type": "MultiPoint",
        "coordinates": [
          [
            -49.814133039847256,
            22.41231774060659
          ]
        ]
      }
    },
    {
      "type": "Feature",
      "properties": {
        "uuid": "47cfc3ce-34d9-4420-9d0b-1fe7fd5e9672",
        "layer_id": "udk_nat_landmarks_pt",
        "timeframe": null,
        "feature_class": "Volcanic Activity",
        "feature_rank": 3,
        "is_visible": true,
        "is_labeled": true,
        "needs_review": false,
        "review_notes": null,
        "img_url": null,
        "last_edited": "2026-06-30",
        "last_editor": "postgres",
        "name_en": null,
        "name_ru": null,
        "name_abb_en": null,
        "name_abb_ru": null,
        "label_en": null,
        "label_ru": null,
        "descr_en": null,
        "descr_ru": null,
        "descr_html_en": "<!DOCTYPE HTML PUBLIC \"-//W3C//DTD HTML 4.0//EN\" \"http://www.w3.org/TR/REC-html40/strict.dtd\">\n<html><head><meta name=\"qrichtext\" content=\"1\" /><style type=\"text/css\">\np, li { white-space: pre-wrap; }\n</style></head><body style=\" font-family:'MS Shell Dlg 2'; font-size:10pt; font-weight:400; font-style:normal;\">\n<p style=\" margin-top:0px; margin-bottom:0px; margin-left:0px; margin-right:0px; -qt-block-indent:0; text-indent:0px;\">()</p></body></html>",
        "descr_html_ru": "<!DOCTYPE HTML PUBLIC \"-//W3C//DTD HTML 4.0//EN\" \"http://www.w3.org/TR/REC-html40/strict.dtd\">\n<html><head><meta name=\"qrichtext\" content=\"1\" /><style type=\"text/css\">\np, li { white-space: pre-wrap; }\n</style></head><body style=\" font-family:'MS Shell Dlg 2'; font-size:10pt; font-weight:400; font-style:normal;\">\n<p style=\" margin-top:0px; margin-bottom:0px; margin-left:0px; margin-right:0px; -qt-block-indent:0; text-indent:0px;\">()</p></body></html>",
        "url_en": null,
        "url_ru": null,
        "source_name": "WotC Underdark 3e",
        "source_url": "https://forgottenrealms.fandom.com/wiki/Underdark_(sourcebook)",
        "dnd_editions_str": "2e, 3e, 5e",
        "feature_levels_str": "Lowerdark, Middledark, Upperdark",
        "extra_str": null,
        "location_en": "south-western Faerûn → Underdark → Firelands",
        "name_alt_en_str": null,
        "location_ru": "юго-западный Фаэрун → Подземье → Огненные Земли",
        "name_alt_ru_str": null,
        "geog_extent_centroid_md": "15° 05′ 26″ N 024° 32′ 59″ W",
        "geog_extent_centroid_fria": "15° 05′ 26″ N 078° 01′ 52″ W",
        "geog_extent_area_sq_km": null,
        "geog_extent_area_sq_miles": null,
        "geog_extent_length_km": null,
        "geog_extent_length_miles": null,
        "geog_extent_perimeter_km": null,
        "geog_extent_perimeter_miles": null,
        "geog_extent_bbox_md": null,
        "geog_extent_bbox_fria": null,
        "name_it": null,
        "name_abb_it": null,
        "label_it": null,
        "descr_it": null,
        "descr_html_it": null,
        "url_it": null,
        "location_it": "Faerûn sud-occidentale → Underdark → Terre di Fuoco",
        "name_alt_it_str": null,
        "topical_tags": "",
        "related_location_tags": "",
        "related_cultures_tags": "",
        "related_factions_tags": ""
      },
      "geometry": {
        "type": "MultiPoint",
        "coordinates": [
          [
            -78.03136303515703,
            15.090804902465827
          ]
        ]
      }
    },
    {
      "type": "Feature",
      "properties": {
        "uuid": "4ecb64d6-b555-4b6e-827b-e988023364de",
        "layer_id": "udk_nat_landmarks_pt",
        "timeframe": null,
        "feature_class": "Volcanic Activity",
        "feature_rank": 3,
        "is_visible": true,
        "is_labeled": true,
        "needs_review": false,
        "review_notes": null,
        "img_url": null,
        "last_edited": "2026-06-30",
        "last_editor": "postgres",
        "name_en": null,
        "name_ru": null,
        "name_abb_en": null,
        "name_abb_ru": null,
        "label_en": null,
        "label_ru": null,
        "descr_en": null,
        "descr_ru": null,
        "descr_html_en": "<!DOCTYPE HTML PUBLIC \"-//W3C//DTD HTML 4.0//EN\" \"http://www.w3.org/TR/REC-html40/strict.dtd\">\n<html><head><meta name=\"qrichtext\" content=\"1\" /><style type=\"text/css\">\np, li { white-space: pre-wrap; }\n</style></head><body style=\" font-family:'MS Shell Dlg 2'; font-size:10pt; font-weight:400; font-style:normal;\">\n<p style=\" margin-top:0px; margin-bottom:0px; margin-left:0px; margin-right:0px; -qt-block-indent:0; text-indent:0px;\">()</p></body></html>",
        "descr_html_ru": "<!DOCTYPE HTML PUBLIC \"-//W3C//DTD HTML 4.0//EN\" \"http://www.w3.org/TR/REC-html40/strict.dtd\">\n<html><head><meta name=\"qrichtext\" content=\"1\" /><style type=\"text/css\">\np, li { white-space: pre-wrap; }\n</style></head><body style=\" font-family:'MS Shell Dlg 2'; font-size:10pt; font-weight:400; font-style:normal;\">\n<p style=\" margin-top:0px; margin-bottom:0px; margin-left:0px; margin-right:0px; -qt-block-indent:0; text-indent:0px;\">()</p></body></html>",
        "url_en": null,
        "url_ru": null,
        "source_name": "WotC Underdark 3e",
        "source_url": "https://forgottenrealms.fandom.com/wiki/Underdark_(sourcebook)",
        "dnd_editions_str": "2e, 3e, 5e",
        "feature_levels_str": "Lowerdark, Middledark, Upperdark",
        "extra_str": null,
        "location_en": "south-western Faerûn → Underdark → Old Shanatar",
        "name_alt_en_str": null,
        "location_ru": "юго-западный Фаэрун → Подземье → Старый Шанатар",
        "name_alt_ru_str": null,
        "geog_extent_centroid_md": "22° 39′ 49″ N 007° 29′ 03″ W",
        "geog_extent_centroid_fria": "22° 39′ 49″ N 060° 57′ 56″ W",
        "geog_extent_area_sq_km": null,
        "geog_extent_area_sq_miles": null,
        "geog_extent_length_km": null,
        "geog_extent_length_miles": null,
        "geog_extent_perimeter_km": null,
        "geog_extent_perimeter_miles": null,
        "geog_extent_bbox_md": null,
        "geog_extent_bbox_fria": null,
        "name_it": null,
        "name_abb_it": null,
        "label_it": null,
        "descr_it": null,
        "descr_html_it": null,
        "url_it": null,
        "location_it": "Faerûn sud-occidentale → Underdark → Antico Shanatar",
        "name_alt_it_str": null,
        "topical_tags": "",
        "related_location_tags": "",
        "related_cultures_tags": "",
        "related_factions_tags": ""
      },
      "geometry": {
        "type": "MultiPoint",
        "coordinates": [
          [
            -60.965742594142746,
            22.663802772700127
          ]
        ]
      }
    },
    {
      "type": "Feature",
      "properties": {
        "uuid": "55f49f74-5dc9-4cd5-a0e3-42f747af3cff",
        "layer_id": "udk_nat_landmarks_pt",
        "timeframe": null,
        "feature_class": "Volcanic Activity",
        "feature_rank": 3,
        "is_visible": true,
        "is_labeled": true,
        "needs_review": false,
        "review_notes": null,
        "img_url": null,
        "last_edited": "2026-06-30",
        "last_editor": "postgres",
        "name_en": null,
        "name_ru": null,
        "name_abb_en": null,
        "name_abb_ru": null,
        "label_en": null,
        "label_ru": null,
        "descr_en": null,
        "descr_ru": null,
        "descr_html_en": "<!DOCTYPE HTML PUBLIC \"-//W3C//DTD HTML 4.0//EN\" \"http://www.w3.org/TR/REC-html40/strict.dtd\">\n<html><head><meta name=\"qrichtext\" content=\"1\" /><style type=\"text/css\">\np, li { white-space: pre-wrap; }\n</style></head><body style=\" font-family:'MS Shell Dlg 2'; font-size:10pt; font-weight:400; font-style:normal;\">\n<p style=\" margin-top:0px; margin-bottom:0px; margin-left:0px; margin-right:0px; -qt-block-indent:0; text-indent:0px;\">()</p></body></html>",
        "descr_html_ru": "<!DOCTYPE HTML PUBLIC \"-//W3C//DTD HTML 4.0//EN\" \"http://www.w3.org/TR/REC-html40/strict.dtd\">\n<html><head><meta name=\"qrichtext\" content=\"1\" /><style type=\"text/css\">\np, li { white-space: pre-wrap; }\n</style></head><body style=\" font-family:'MS Shell Dlg 2'; font-size:10pt; font-weight:400; font-style:normal;\">\n<p style=\" margin-top:0px; margin-bottom:0px; margin-left:0px; margin-right:0px; -qt-block-indent:0; text-indent:0px;\">()</p></body></html>",
        "url_en": null,
        "url_ru": null,
        "source_name": "WotC Underdark 3e",
        "source_url": "https://forgottenrealms.fandom.com/wiki/Underdark_(sourcebook)",
        "dnd_editions_str": "2e, 3e, 5e",
        "feature_levels_str": "Lowerdark, Middledark, Upperdark",
        "extra_str": null,
        "location_en": "south-western Faerûn → Underdark → Serpent Deeps",
        "name_alt_en_str": null,
        "location_ru": "юго-западный Фаэрун → Подземье → Змеиные Глубины",
        "name_alt_ru_str": null,
        "geog_extent_centroid_md": "12° 47′ 08″ N 011° 42′ 17″ W",
        "geog_extent_centroid_fria": "12° 47′ 08″ N 065° 11′ 10″ W",
        "geog_extent_area_sq_km": null,
        "geog_extent_area_sq_miles": null,
        "geog_extent_length_km": null,
        "geog_extent_length_miles": null,
        "geog_extent_perimeter_km": null,
        "geog_extent_perimeter_miles": null,
        "geog_extent_bbox_md": null,
        "geog_extent_bbox_fria": null,
        "name_it": null,
        "name_abb_it": null,
        "label_it": null,
        "descr_it": null,
        "descr_html_it": null,
        "url_it": null,
        "location_it": "Faerûn sud-occidentale → Underdark → Profondità dei Serpenti",
        "name_alt_it_str": null,
        "topical_tags": "",
        "related_location_tags": "",
        "related_cultures_tags": "",
        "related_factions_tags": ""
      },
      "geometry": {
        "type": "MultiPoint",
        "coordinates": [
          [
            -65.18622896281838,
            12.785661700520063
          ]
        ]
      }
    },
    {
      "type": "Feature",
      "properties": {
        "uuid": "653cd790-79aa-4816-8877-b52acde11873",
        "layer_id": "udk_nat_landmarks_pt",
        "timeframe": null,
        "feature_class": "Volcanic Activity",
        "feature_rank": 3,
        "is_visible": true,
        "is_labeled": true,
        "needs_review": false,
        "review_notes": null,
        "img_url": null,
        "last_edited": "2026-06-30",
        "last_editor": "postgres",
        "name_en": null,
        "name_ru": null,
        "name_abb_en": null,
        "name_abb_ru": null,
        "label_en": null,
        "label_ru": null,
        "descr_en": null,
        "descr_ru": null,
        "descr_html_en": "<!DOCTYPE HTML PUBLIC \"-//W3C//DTD HTML 4.0//EN\" \"http://www.w3.org/TR/REC-html40/strict.dtd\">\n<html><head><meta name=\"qrichtext\" content=\"1\" /><style type=\"text/css\">\np, li { white-space: pre-wrap; }\n</style></head><body style=\" font-family:'MS Shell Dlg 2'; font-size:10pt; font-weight:400; font-style:normal;\">\n<p style=\" margin-top:0px; margin-bottom:0px; margin-left:0px; margin-right:0px; -qt-block-indent:0; text-indent:0px;\">()</p></body></html>",
        "descr_html_ru": "<!DOCTYPE HTML PUBLIC \"-//W3C//DTD HTML 4.0//EN\" \"http://www.w3.org/TR/REC-html40/strict.dtd\">\n<html><head><meta name=\"qrichtext\" content=\"1\" /><style type=\"text/css\">\np, li { white-space: pre-wrap; }\n</style></head><body style=\" font-family:'MS Shell Dlg 2'; font-size:10pt; font-weight:400; font-style:normal;\">\n<p style=\" margin-top:0px; margin-bottom:0px; margin-left:0px; margin-right:0px; -qt-block-indent:0; text-indent:0px;\">()</p></body></html>",
        "url_en": null,
        "url_ru": null,
        "source_name": "WotC Underdark 3e",
        "source_url": "https://forgottenrealms.fandom.com/wiki/Underdark_(sourcebook)",
        "dnd_editions_str": "2e, 3e, 5e",
        "feature_levels_str": "Lowerdark, Middledark, Upperdark",
        "extra_str": null,
        "location_en": "south-western Faerûn → Underdark → Firelands",
        "name_alt_en_str": null,
        "location_ru": "юго-западный Фаэрун → Подземье → Огненные Земли",
        "name_alt_ru_str": null,
        "geog_extent_centroid_md": "14° 26′ 28″ N 020° 41′ 46″ W",
        "geog_extent_centroid_fria": "14° 26′ 28″ N 074° 10′ 40″ W",
        "geog_extent_area_sq_km": null,
        "geog_extent_area_sq_miles": null,
        "geog_extent_length_km": null,
        "geog_extent_length_miles": null,
        "geog_extent_perimeter_km": null,
        "geog_extent_perimeter_miles": null,
        "geog_extent_bbox_md": null,
        "geog_extent_bbox_fria": null,
        "name_it": null,
        "name_abb_it": null,
        "label_it": null,
        "descr_it": null,
        "descr_html_it": null,
        "url_it": null,
        "location_it": "Faerûn sud-occidentale → Underdark → Terre di Fuoco",
        "name_alt_it_str": null,
        "topical_tags": "",
        "related_location_tags": "",
        "related_cultures_tags": "",
        "related_factions_tags": ""
      },
      "geometry": {
        "type": "MultiPoint",
        "coordinates": [
          [
            -74.17782281345544,
            14.441225578324683
          ]
        ]
      }
    },
    {
      "type": "Feature",
      "properties": {
        "uuid": "718e8c74-a693-4b21-be5c-9da9c192b940",
        "layer_id": "udk_nat_landmarks_pt",
        "timeframe": null,
        "feature_class": "Volcanic Activity",
        "feature_rank": 3,
        "is_visible": true,
        "is_labeled": true,
        "needs_review": false,
        "review_notes": null,
        "img_url": null,
        "last_edited": "2026-06-30",
        "last_editor": "postgres",
        "name_en": null,
        "name_ru": null,
        "name_abb_en": null,
        "name_abb_ru": null,
        "label_en": null,
        "label_ru": null,
        "descr_en": null,
        "descr_ru": null,
        "descr_html_en": "<!DOCTYPE HTML PUBLIC \"-//W3C//DTD HTML 4.0//EN\" \"http://www.w3.org/TR/REC-html40/strict.dtd\">\n<html><head><meta name=\"qrichtext\" content=\"1\" /><style type=\"text/css\">\np, li { white-space: pre-wrap; }\n</style></head><body style=\" font-family:'MS Shell Dlg 2'; font-size:10pt; font-weight:400; font-style:normal;\">\n<p style=\" margin-top:0px; margin-bottom:0px; margin-left:0px; margin-right:0px; -qt-block-indent:0; text-indent:0px;\">()</p></body></html>",
        "descr_html_ru": "<!DOCTYPE HTML PUBLIC \"-//W3C//DTD HTML 4.0//EN\" \"http://www.w3.org/TR/REC-html40/strict.dtd\">\n<html><head><meta name=\"qrichtext\" content=\"1\" /><style type=\"text/css\">\np, li { white-space: pre-wrap; }\n</style></head><body style=\" font-family:'MS Shell Dlg 2'; font-size:10pt; font-weight:400; font-style:normal;\">\n<p style=\" margin-top:0px; margin-bottom:0px; margin-left:0px; margin-right:0px; -qt-block-indent:0; text-indent:0px;\">()</p></body></html>",
        "url_en": null,
        "url_ru": null,
        "source_name": "WotC Underdark 3e",
        "source_url": "https://forgottenrealms.fandom.com/wiki/Underdark_(sourcebook)",
        "dnd_editions_str": "2e, 3e, 5e",
        "feature_levels_str": "Lowerdark, Middledark, Upperdark",
        "extra_str": null,
        "location_en": "south-western Faerûn → Underdark → Serpent Deeps",
        "name_alt_en_str": null,
        "location_ru": "юго-западный Фаэрун → Подземье → Змеиные Глубины",
        "name_alt_ru_str": null,
        "geog_extent_centroid_md": "12° 56′ 36″ N 014° 47′ 44″ W",
        "geog_extent_centroid_fria": "12° 56′ 36″ N 068° 16′ 37″ W",
        "geog_extent_area_sq_km": null,
        "geog_extent_area_sq_miles": null,
        "geog_extent_length_km": null,
        "geog_extent_length_miles": null,
        "geog_extent_perimeter_km": null,
        "geog_extent_perimeter_miles": null,
        "geog_extent_bbox_md": null,
        "geog_extent_bbox_fria": null,
        "name_it": null,
        "name_abb_it": null,
        "label_it": null,
        "descr_it": null,
        "descr_html_it": null,
        "url_it": null,
        "location_it": "Faerûn sud-occidentale → Underdark → Profondità dei Serpenti",
        "name_alt_it_str": null,
        "topical_tags": "",
        "related_location_tags": "",
        "related_cultures_tags": "",
        "related_factions_tags": ""
      },
      "geometry": {
        "type": "MultiPoint",
        "coordinates": [
          [
            -68.27708934897488,
            12.94344606603041
          ]
        ]
      }
    },
    {
      "type": "Feature",
      "properties": {
        "uuid": "867f462a-ff7b-4f59-b389-85a8969d4939",
        "layer_id": "udk_nat_landmarks_pt",
        "timeframe": null,
        "feature_class": "Volcanic Activity",
        "feature_rank": 3,
        "is_visible": true,
        "is_labeled": true,
        "needs_review": false,
        "review_notes": null,
        "img_url": null,
        "last_edited": "2026-06-30",
        "last_editor": "postgres",
        "name_en": null,
        "name_ru": null,
        "name_abb_en": null,
        "name_abb_ru": null,
        "label_en": null,
        "label_ru": null,
        "descr_en": null,
        "descr_ru": null,
        "descr_html_en": "<!DOCTYPE HTML PUBLIC \"-//W3C//DTD HTML 4.0//EN\" \"http://www.w3.org/TR/REC-html40/strict.dtd\">\n<html><head><meta name=\"qrichtext\" content=\"1\" /><style type=\"text/css\">\np, li { white-space: pre-wrap; }\n</style></head><body style=\" font-family:'MS Shell Dlg 2'; font-size:10pt; font-weight:400; font-style:normal;\">\n<p style=\" margin-top:0px; margin-bottom:0px; margin-left:0px; margin-right:0px; -qt-block-indent:0; text-indent:0px;\">()</p></body></html>",
        "descr_html_ru": "<!DOCTYPE HTML PUBLIC \"-//W3C//DTD HTML 4.0//EN\" \"http://www.w3.org/TR/REC-html40/strict.dtd\">\n<html><head><meta name=\"qrichtext\" content=\"1\" /><style type=\"text/css\">\np, li { white-space: pre-wrap; }\n</style></head><body style=\" font-family:'MS Shell Dlg 2'; font-size:10pt; font-weight:400; font-style:normal;\">\n<p style=\" margin-top:0px; margin-bottom:0px; margin-left:0px; margin-right:0px; -qt-block-indent:0; text-indent:0px;\">()</p></body></html>",
        "url_en": null,
        "url_ru": null,
        "source_name": "WotC Underdark 3e",
        "source_url": "https://forgottenrealms.fandom.com/wiki/Underdark_(sourcebook)",
        "dnd_editions_str": "2e, 3e, 5e",
        "feature_levels_str": "Lowerdark, Middledark, Upperdark",
        "extra_str": null,
        "location_en": "central Lake of Steam → Underdark → Arnvault",
        "name_alt_en_str": null,
        "location_ru": "центральный озеро Пара → Подземье → Арнволт",
        "name_alt_ru_str": null,
        "geog_extent_centroid_md": "23° 31′ 09″ N 003° 49′ 35″ W",
        "geog_extent_centroid_fria": "23° 31′ 09″ N 057° 18′ 28″ W",
        "geog_extent_area_sq_km": null,
        "geog_extent_area_sq_miles": null,
        "geog_extent_length_km": null,
        "geog_extent_length_miles": null,
        "geog_extent_perimeter_km": null,
        "geog_extent_perimeter_miles": null,
        "geog_extent_bbox_md": null,
        "geog_extent_bbox_fria": null,
        "name_it": null,
        "name_abb_it": null,
        "label_it": null,
        "descr_it": null,
        "descr_html_it": null,
        "url_it": null,
        "location_it": "Lago dei Vapori centrale → Underdark → Arnvault",
        "name_alt_it_str": null,
        "topical_tags": "",
        "related_location_tags": "",
        "related_cultures_tags": "",
        "related_factions_tags": ""
      },
      "geometry": {
        "type": "MultiPoint",
        "coordinates": [
          [
            -57.30791965194571,
            23.519261766780254
          ]
        ]
      }
    },
    {
      "type": "Feature",
      "properties": {
        "uuid": "92d8c631-9502-4f30-af79-dbd9abd3dd59",
        "layer_id": "udk_nat_landmarks_pt",
        "timeframe": null,
        "feature_class": "Volcanic Activity",
        "feature_rank": 3,
        "is_visible": true,
        "is_labeled": true,
        "needs_review": false,
        "review_notes": null,
        "img_url": null,
        "last_edited": "2026-06-30",
        "last_editor": "postgres",
        "name_en": null,
        "name_ru": null,
        "name_abb_en": null,
        "name_abb_ru": null,
        "label_en": null,
        "label_ru": null,
        "descr_en": null,
        "descr_ru": null,
        "descr_html_en": "<!DOCTYPE HTML PUBLIC \"-//W3C//DTD HTML 4.0//EN\" \"http://www.w3.org/TR/REC-html40/strict.dtd\">\n<html><head><meta name=\"qrichtext\" content=\"1\" /><style type=\"text/css\">\np, li { white-space: pre-wrap; }\n</style></head><body style=\" font-family:'MS Shell Dlg 2'; font-size:10pt; font-weight:400; font-style:normal;\">\n<p style=\" margin-top:0px; margin-bottom:0px; margin-left:0px; margin-right:0px; -qt-block-indent:0; text-indent:0px;\">()</p></body></html>",
        "descr_html_ru": "<!DOCTYPE HTML PUBLIC \"-//W3C//DTD HTML 4.0//EN\" \"http://www.w3.org/TR/REC-html40/strict.dtd\">\n<html><head><meta name=\"qrichtext\" content=\"1\" /><style type=\"text/css\">\np, li { white-space: pre-wrap; }\n</style></head><body style=\" font-family:'MS Shell Dlg 2'; font-size:10pt; font-weight:400; font-style:normal;\">\n<p style=\" margin-top:0px; margin-bottom:0px; margin-left:0px; margin-right:0px; -qt-block-indent:0; text-indent:0px;\">()</p></body></html>",
        "url_en": null,
        "url_ru": null,
        "source_name": "WotC Underdark 3e",
        "source_url": "https://forgottenrealms.fandom.com/wiki/Underdark_(sourcebook)",
        "dnd_editions_str": "2e, 3e, 5e",
        "feature_levels_str": "Lowerdark, Middledark, Upperdark",
        "extra_str": null,
        "location_en": "south-western Faerûn → Underdark → Firelands",
        "name_alt_en_str": null,
        "location_ru": "юго-западный Фаэрун → Подземье → Огненные Земли",
        "name_alt_ru_str": null,
        "geog_extent_centroid_md": "13° 30′ 54″ N 023° 31′ 34″ W",
        "geog_extent_centroid_fria": "13° 30′ 54″ N 077° 00′ 27″ W",
        "geog_extent_area_sq_km": null,
        "geog_extent_area_sq_miles": null,
        "geog_extent_length_km": null,
        "geog_extent_length_miles": null,
        "geog_extent_perimeter_km": null,
        "geog_extent_perimeter_miles": null,
        "geog_extent_bbox_md": null,
        "geog_extent_bbox_fria": null,
        "name_it": null,
        "name_abb_it": null,
        "label_it": null,
        "descr_it": null,
        "descr_html_it": null,
        "url_it": null,
        "location_it": "Faerûn sud-occidentale → Underdark → Terre di Fuoco",
        "name_alt_it_str": null,
        "topical_tags": "",
        "related_location_tags": "",
        "related_cultures_tags": "",
        "related_factions_tags": ""
      },
      "geometry": {
        "type": "MultiPoint",
        "coordinates": [
          [
            -77.00776641376754,
            13.515230216453268
          ]
        ]
      }
    },
    {
      "type": "Feature",
      "properties": {
        "uuid": "b51cece1-29f8-4178-a2ca-8f47e9d49e52",
        "layer_id": "udk_nat_landmarks_pt",
        "timeframe": null,
        "feature_class": "Volcanic Activity",
        "feature_rank": 3,
        "is_visible": true,
        "is_labeled": true,
        "needs_review": false,
        "review_notes": null,
        "img_url": null,
        "last_edited": "2026-06-30",
        "last_editor": "postgres",
        "name_en": null,
        "name_ru": null,
        "name_abb_en": null,
        "name_abb_ru": null,
        "label_en": null,
        "label_ru": null,
        "descr_en": null,
        "descr_ru": null,
        "descr_html_en": "<!DOCTYPE HTML PUBLIC \"-//W3C//DTD HTML 4.0//EN\" \"http://www.w3.org/TR/REC-html40/strict.dtd\">\n<html><head><meta name=\"qrichtext\" content=\"1\" /><style type=\"text/css\">\np, li { white-space: pre-wrap; }\n</style></head><body style=\" font-family:'MS Shell Dlg 2'; font-size:10pt; font-weight:400; font-style:normal;\">\n<p style=\" margin-top:0px; margin-bottom:0px; margin-left:0px; margin-right:0px; -qt-block-indent:0; text-indent:0px;\">()</p></body></html>",
        "descr_html_ru": "<!DOCTYPE HTML PUBLIC \"-//W3C//DTD HTML 4.0//EN\" \"http://www.w3.org/TR/REC-html40/strict.dtd\">\n<html><head><meta name=\"qrichtext\" content=\"1\" /><style type=\"text/css\">\np, li { white-space: pre-wrap; }\n</style></head><body style=\" font-family:'MS Shell Dlg 2'; font-size:10pt; font-weight:400; font-style:normal;\">\n<p style=\" margin-top:0px; margin-bottom:0px; margin-left:0px; margin-right:0px; -qt-block-indent:0; text-indent:0px;\">()</p></body></html>",
        "url_en": null,
        "url_ru": null,
        "source_name": "WotC Underdark 3e",
        "source_url": "https://forgottenrealms.fandom.com/wiki/Underdark_(sourcebook)",
        "dnd_editions_str": "2e, 3e, 5e",
        "feature_levels_str": "Lowerdark, Middledark, Upperdark",
        "extra_str": null,
        "location_en": "eastern Faerûn → Underdark → Earthroot → Undrek'Thoz",
        "name_alt_en_str": null,
        "location_ru": "восточный Фаэрун → Подземье → Корень Земли → Ундрек'Тоз",
        "name_alt_ru_str": null,
        "geog_extent_centroid_md": "35° 37′ 15″ N 016° 18′ 45″ E",
        "geog_extent_centroid_fria": "35° 37′ 15″ N 037° 10′ 08″ W",
        "geog_extent_area_sq_km": null,
        "geog_extent_area_sq_miles": null,
        "geog_extent_length_km": null,
        "geog_extent_length_miles": null,
        "geog_extent_perimeter_km": null,
        "geog_extent_perimeter_miles": null,
        "geog_extent_bbox_md": null,
        "geog_extent_bbox_fria": null,
        "name_it": null,
        "name_abb_it": null,
        "label_it": null,
        "descr_it": null,
        "descr_html_it": null,
        "url_it": null,
        "location_it": "Faerûn orientale → Underdark → Radice della Terra → Undrek'Thoz",
        "name_alt_it_str": null,
        "topical_tags": "",
        "related_location_tags": "",
        "related_cultures_tags": "",
        "related_factions_tags": ""
      },
      "geometry": {
        "type": "MultiPoint",
        "coordinates": [
          [
            -37.16897593241642,
            35.62091755058273
          ]
        ]
      }
    },
    {
      "type": "Feature",
      "properties": {
        "uuid": "b67d7e12-9d21-481b-b462-e751f78bc222",
        "layer_id": "udk_nat_landmarks_pt",
        "timeframe": null,
        "feature_class": "Volcanic Activity",
        "feature_rank": 3,
        "is_visible": true,
        "is_labeled": true,
        "needs_review": false,
        "review_notes": null,
        "img_url": null,
        "last_edited": "2026-06-30",
        "last_editor": "postgres",
        "name_en": null,
        "name_ru": null,
        "name_abb_en": null,
        "name_abb_ru": null,
        "label_en": null,
        "label_ru": null,
        "descr_en": null,
        "descr_ru": null,
        "descr_html_en": "<!DOCTYPE HTML PUBLIC \"-//W3C//DTD HTML 4.0//EN\" \"http://www.w3.org/TR/REC-html40/strict.dtd\">\n<html><head><meta name=\"qrichtext\" content=\"1\" /><style type=\"text/css\">\np, li { white-space: pre-wrap; }\n</style></head><body style=\" font-family:'MS Shell Dlg 2'; font-size:10pt; font-weight:400; font-style:normal;\">\n<p style=\" margin-top:0px; margin-bottom:0px; margin-left:0px; margin-right:0px; -qt-block-indent:0; text-indent:0px;\">()</p></body></html>",
        "descr_html_ru": "<!DOCTYPE HTML PUBLIC \"-//W3C//DTD HTML 4.0//EN\" \"http://www.w3.org/TR/REC-html40/strict.dtd\">\n<html><head><meta name=\"qrichtext\" content=\"1\" /><style type=\"text/css\">\np, li { white-space: pre-wrap; }\n</style></head><body style=\" font-family:'MS Shell Dlg 2'; font-size:10pt; font-weight:400; font-style:normal;\">\n<p style=\" margin-top:0px; margin-bottom:0px; margin-left:0px; margin-right:0px; -qt-block-indent:0; text-indent:0px;\">()</p></body></html>",
        "url_en": null,
        "url_ru": null,
        "source_name": "WotC Underdark 3e",
        "source_url": "https://forgottenrealms.fandom.com/wiki/Underdark_(sourcebook)",
        "dnd_editions_str": "2e, 3e, 5e",
        "feature_levels_str": "Lowerdark, Middledark, Upperdark",
        "extra_str": null,
        "location_en": "north-western Faerûn → Underdark → Northdark",
        "name_alt_en_str": null,
        "location_ru": "северо-западный Фаэрун → Подземье → Нортдарк",
        "name_alt_ru_str": null,
        "geog_extent_centroid_md": "51° 34′ 27″ N 022° 45′ 42″ W",
        "geog_extent_centroid_fria": "51° 34′ 27″ N 076° 14′ 35″ W",
        "geog_extent_area_sq_km": null,
        "geog_extent_area_sq_miles": null,
        "geog_extent_length_km": null,
        "geog_extent_length_miles": null,
        "geog_extent_perimeter_km": null,
        "geog_extent_perimeter_miles": null,
        "geog_extent_bbox_md": null,
        "geog_extent_bbox_fria": null,
        "name_it": null,
        "name_abb_it": null,
        "label_it": null,
        "descr_it": null,
        "descr_html_it": null,
        "url_it": null,
        "location_it": "Faerûn nord-occidentale → Underdark → Sottosuolo Settentrionale",
        "name_alt_it_str": null,
        "topical_tags": "",
        "related_location_tags": "",
        "related_cultures_tags": "",
        "related_factions_tags": ""
      },
      "geometry": {
        "type": "MultiPoint",
        "coordinates": [
          [
            -76.24328324593282,
            51.57440314123523
          ]
        ]
      }
    },
    {
      "type": "Feature",
      "properties": {
        "uuid": "bac9cc2a-dba7-438a-b2d8-37238e34296f",
        "layer_id": "udk_nat_landmarks_pt",
        "timeframe": null,
        "feature_class": "Volcanic Activity",
        "feature_rank": 3,
        "is_visible": true,
        "is_labeled": true,
        "needs_review": false,
        "review_notes": null,
        "img_url": null,
        "last_edited": "2026-06-30",
        "last_editor": "postgres",
        "name_en": null,
        "name_ru": null,
        "name_abb_en": null,
        "name_abb_ru": null,
        "label_en": null,
        "label_ru": null,
        "descr_en": null,
        "descr_ru": null,
        "descr_html_en": "<!DOCTYPE HTML PUBLIC \"-//W3C//DTD HTML 4.0//EN\" \"http://www.w3.org/TR/REC-html40/strict.dtd\">\n<html><head><meta name=\"qrichtext\" content=\"1\" /><style type=\"text/css\">\np, li { white-space: pre-wrap; }\n</style></head><body style=\" font-family:'MS Shell Dlg 2'; font-size:10pt; font-weight:400; font-style:normal;\">\n<p style=\" margin-top:0px; margin-bottom:0px; margin-left:0px; margin-right:0px; -qt-block-indent:0; text-indent:0px;\">()</p></body></html>",
        "descr_html_ru": "<!DOCTYPE HTML PUBLIC \"-//W3C//DTD HTML 4.0//EN\" \"http://www.w3.org/TR/REC-html40/strict.dtd\">\n<html><head><meta name=\"qrichtext\" content=\"1\" /><style type=\"text/css\">\np, li { white-space: pre-wrap; }\n</style></head><body style=\" font-family:'MS Shell Dlg 2'; font-size:10pt; font-weight:400; font-style:normal;\">\n<p style=\" margin-top:0px; margin-bottom:0px; margin-left:0px; margin-right:0px; -qt-block-indent:0; text-indent:0px;\">()</p></body></html>",
        "url_en": null,
        "url_ru": null,
        "source_name": "WotC Underdark 3e",
        "source_url": "https://forgottenrealms.fandom.com/wiki/Underdark_(sourcebook)",
        "dnd_editions_str": "2e, 3e, 5e",
        "feature_levels_str": "Lowerdark, Middledark, Upperdark",
        "extra_str": null,
        "location_en": "south-western Faerûn → Underdark → Firelands",
        "name_alt_en_str": null,
        "location_ru": "юго-западный Фаэрун → Подземье → Огненные Земли",
        "name_alt_ru_str": null,
        "geog_extent_centroid_md": "13° 01′ 20″ N 020° 11′ 40″ W",
        "geog_extent_centroid_fria": "13° 01′ 20″ N 073° 40′ 33″ W",
        "geog_extent_area_sq_km": null,
        "geog_extent_area_sq_miles": null,
        "geog_extent_length_km": null,
        "geog_extent_length_miles": null,
        "geog_extent_perimeter_km": null,
        "geog_extent_perimeter_miles": null,
        "geog_extent_bbox_md": null,
        "geog_extent_bbox_fria": null,
        "name_it": null,
        "name_abb_it": null,
        "label_it": null,
        "descr_it": null,
        "descr_html_it": null,
        "url_it": null,
        "location_it": "Faerûn sud-occidentale → Underdark → Terre di Fuoco",
        "name_alt_it_str": null,
        "topical_tags": "",
        "related_location_tags": "",
        "related_cultures_tags": "",
        "related_factions_tags": ""
      },
      "geometry": {
        "type": "MultiPoint",
        "coordinates": [
          [
            -73.6760597637547,
            13.022330301366162
          ]
        ]
      }
    },
    {
      "type": "Feature",
      "properties": {
        "uuid": "be07c958-b6ef-43bb-9300-c98db75bb327",
        "layer_id": "udk_nat_landmarks_pt",
        "timeframe": null,
        "feature_class": "Volcanic Activity",
        "feature_rank": 3,
        "is_visible": true,
        "is_labeled": true,
        "needs_review": false,
        "review_notes": null,
        "img_url": null,
        "last_edited": "2026-06-30",
        "last_editor": "postgres",
        "name_en": null,
        "name_ru": null,
        "name_abb_en": null,
        "name_abb_ru": null,
        "label_en": null,
        "label_ru": null,
        "descr_en": null,
        "descr_ru": null,
        "descr_html_en": "<!DOCTYPE HTML PUBLIC \"-//W3C//DTD HTML 4.0//EN\" \"http://www.w3.org/TR/REC-html40/strict.dtd\">\n<html><head><meta name=\"qrichtext\" content=\"1\" /><style type=\"text/css\">\np, li { white-space: pre-wrap; }\n</style></head><body style=\" font-family:'MS Shell Dlg 2'; font-size:10pt; font-weight:400; font-style:normal;\">\n<p style=\" margin-top:0px; margin-bottom:0px; margin-left:0px; margin-right:0px; -qt-block-indent:0; text-indent:0px;\">()</p></body></html>",
        "descr_html_ru": "<!DOCTYPE HTML PUBLIC \"-//W3C//DTD HTML 4.0//EN\" \"http://www.w3.org/TR/REC-html40/strict.dtd\">\n<html><head><meta name=\"qrichtext\" content=\"1\" /><style type=\"text/css\">\np, li { white-space: pre-wrap; }\n</style></head><body style=\" font-family:'MS Shell Dlg 2'; font-size:10pt; font-weight:400; font-style:normal;\">\n<p style=\" margin-top:0px; margin-bottom:0px; margin-left:0px; margin-right:0px; -qt-block-indent:0; text-indent:0px;\">()</p></body></html>",
        "url_en": null,
        "url_ru": null,
        "source_name": "WotC Underdark 3e",
        "source_url": "https://forgottenrealms.fandom.com/wiki/Underdark_(sourcebook)",
        "dnd_editions_str": "2e, 3e, 5e",
        "feature_levels_str": "Lowerdark, Middledark, Upperdark",
        "extra_str": null,
        "location_en": "central Faerûn → Underdark → Darklands",
        "name_alt_en_str": null,
        "location_ru": "центральный Фаэрун → Подземье → Тёмные Земли",
        "name_alt_ru_str": null,
        "geog_extent_centroid_md": "31° 54′ 17″ N 002° 25′ 25″ E",
        "geog_extent_centroid_fria": "31° 54′ 17″ N 051° 03′ 27″ W",
        "geog_extent_area_sq_km": null,
        "geog_extent_area_sq_miles": null,
        "geog_extent_length_km": null,
        "geog_extent_length_miles": null,
        "geog_extent_perimeter_km": null,
        "geog_extent_perimeter_miles": null,
        "geog_extent_bbox_md": null,
        "geog_extent_bbox_fria": null,
        "name_it": null,
        "name_abb_it": null,
        "label_it": null,
        "descr_it": null,
        "descr_html_it": null,
        "url_it": null,
        "location_it": "Faerûn centrale → Underdark → Terre Oscure",
        "name_alt_it_str": null,
        "topical_tags": "",
        "related_location_tags": "",
        "related_cultures_tags": "",
        "related_factions_tags": ""
      },
      "geometry": {
        "type": "MultiPoint",
        "coordinates": [
          [
            -51.05776349265128,
            31.904810437608504
          ]
        ]
      }
    },
    {
      "type": "Feature",
      "properties": {
        "uuid": "cdc6a78a-0bea-4d4e-a405-6932697c77a5",
        "layer_id": "udk_nat_landmarks_pt",
        "timeframe": null,
        "feature_class": "Volcanic Activity",
        "feature_rank": 3,
        "is_visible": true,
        "is_labeled": true,
        "needs_review": false,
        "review_notes": null,
        "img_url": null,
        "last_edited": "2026-06-30",
        "last_editor": "postgres",
        "name_en": null,
        "name_ru": null,
        "name_abb_en": null,
        "name_abb_ru": null,
        "label_en": null,
        "label_ru": null,
        "descr_en": null,
        "descr_ru": null,
        "descr_html_en": "<!DOCTYPE HTML PUBLIC \"-//W3C//DTD HTML 4.0//EN\" \"http://www.w3.org/TR/REC-html40/strict.dtd\">\n<html><head><meta name=\"qrichtext\" content=\"1\" /><style type=\"text/css\">\np, li { white-space: pre-wrap; }\n</style></head><body style=\" font-family:'MS Shell Dlg 2'; font-size:10pt; font-weight:400; font-style:normal;\">\n<p style=\" margin-top:0px; margin-bottom:0px; margin-left:0px; margin-right:0px; -qt-block-indent:0; text-indent:0px;\">()</p></body></html>",
        "descr_html_ru": "<!DOCTYPE HTML PUBLIC \"-//W3C//DTD HTML 4.0//EN\" \"http://www.w3.org/TR/REC-html40/strict.dtd\">\n<html><head><meta name=\"qrichtext\" content=\"1\" /><style type=\"text/css\">\np, li { white-space: pre-wrap; }\n</style></head><body style=\" font-family:'MS Shell Dlg 2'; font-size:10pt; font-weight:400; font-style:normal;\">\n<p style=\" margin-top:0px; margin-bottom:0px; margin-left:0px; margin-right:0px; -qt-block-indent:0; text-indent:0px;\">()</p></body></html>",
        "url_en": null,
        "url_ru": null,
        "source_name": "WotC Underdark 3e",
        "source_url": "https://forgottenrealms.fandom.com/wiki/Underdark_(sourcebook)",
        "dnd_editions_str": "2e, 3e, 5e",
        "feature_levels_str": "Lowerdark, Middledark, Upperdark",
        "extra_str": null,
        "location_en": "central Faerûn → Underdark → Darklands",
        "name_alt_en_str": null,
        "location_ru": "центральный Фаэрун → Подземье → Тёмные Земли",
        "name_alt_ru_str": null,
        "geog_extent_centroid_md": "30° 53′ 36″ N 001° 17′ 17″ E",
        "geog_extent_centroid_fria": "30° 53′ 36″ N 052° 11′ 36″ W",
        "geog_extent_area_sq_km": null,
        "geog_extent_area_sq_miles": null,
        "geog_extent_length_km": null,
        "geog_extent_length_miles": null,
        "geog_extent_perimeter_km": null,
        "geog_extent_perimeter_miles": null,
        "geog_extent_bbox_md": null,
        "geog_extent_bbox_fria": null,
        "name_it": null,
        "name_abb_it": null,
        "label_it": null,
        "descr_it": null,
        "descr_html_it": null,
        "url_it": null,
        "location_it": "Faerûn centrale → Underdark → Terre Oscure",
        "name_alt_it_str": null,
        "topical_tags": "",
        "related_location_tags": "",
        "related_cultures_tags": "",
        "related_factions_tags": ""
      },
      "geometry": {
        "type": "MultiPoint",
        "coordinates": [
          [
            -52.193410631766845,
            30.89355804793605
          ]
        ]
      }
    },
    {
      "type": "Feature",
      "properties": {
        "uuid": "d4bd9ddf-8e7a-4c8c-90e1-6205f84bc89f",
        "layer_id": "udk_nat_landmarks_pt",
        "timeframe": null,
        "feature_class": "Volcanic Activity",
        "feature_rank": 3,
        "is_visible": true,
        "is_labeled": true,
        "needs_review": false,
        "review_notes": null,
        "img_url": null,
        "last_edited": "2026-06-30",
        "last_editor": "postgres",
        "name_en": null,
        "name_ru": null,
        "name_abb_en": null,
        "name_abb_ru": null,
        "label_en": null,
        "label_ru": null,
        "descr_en": null,
        "descr_ru": null,
        "descr_html_en": "<!DOCTYPE HTML PUBLIC \"-//W3C//DTD HTML 4.0//EN\" \"http://www.w3.org/TR/REC-html40/strict.dtd\">\n<html><head><meta name=\"qrichtext\" content=\"1\" /><style type=\"text/css\">\np, li { white-space: pre-wrap; }\n</style></head><body style=\" font-family:'MS Shell Dlg 2'; font-size:10pt; font-weight:400; font-style:normal;\">\n<p style=\" margin-top:0px; margin-bottom:0px; margin-left:0px; margin-right:0px; -qt-block-indent:0; text-indent:0px;\">()</p></body></html>",
        "descr_html_ru": "<!DOCTYPE HTML PUBLIC \"-//W3C//DTD HTML 4.0//EN\" \"http://www.w3.org/TR/REC-html40/strict.dtd\">\n<html><head><meta name=\"qrichtext\" content=\"1\" /><style type=\"text/css\">\np, li { white-space: pre-wrap; }\n</style></head><body style=\" font-family:'MS Shell Dlg 2'; font-size:10pt; font-weight:400; font-style:normal;\">\n<p style=\" margin-top:0px; margin-bottom:0px; margin-left:0px; margin-right:0px; -qt-block-indent:0; text-indent:0px;\">()</p></body></html>",
        "url_en": null,
        "url_ru": null,
        "source_name": "WotC Underdark 3e",
        "source_url": "https://forgottenrealms.fandom.com/wiki/Underdark_(sourcebook)",
        "dnd_editions_str": "2e, 3e, 5e",
        "feature_levels_str": "Lowerdark, Middledark, Upperdark",
        "extra_str": null,
        "location_en": "eastern Faerûn → Underdark → Earthroot",
        "name_alt_en_str": null,
        "location_ru": "восточный Фаэрун → Подземье → Корень Земли",
        "name_alt_ru_str": null,
        "geog_extent_centroid_md": "31° 15′ 45″ N 020° 07′ 36″ E",
        "geog_extent_centroid_fria": "31° 15′ 45″ N 033° 21′ 17″ W",
        "geog_extent_area_sq_km": null,
        "geog_extent_area_sq_miles": null,
        "geog_extent_length_km": null,
        "geog_extent_length_miles": null,
        "geog_extent_perimeter_km": null,
        "geog_extent_perimeter_miles": null,
        "geog_extent_bbox_md": null,
        "geog_extent_bbox_fria": null,
        "name_it": null,
        "name_abb_it": null,
        "label_it": null,
        "descr_it": null,
        "descr_html_it": null,
        "url_it": null,
        "location_it": "Faerûn orientale → Underdark → Radice della Terra",
        "name_alt_it_str": null,
        "topical_tags": "",
        "related_location_tags": "",
        "related_cultures_tags": "",
        "related_factions_tags": ""
      },
      "geometry": {
        "type": "MultiPoint",
        "coordinates": [
          [
            -33.35473919834387,
            31.262644556309883
          ]
        ]
      }
    },
    {
      "type": "Feature",
      "properties": {
        "uuid": "d6ecc19f-cbcd-450e-addf-75bf896ef7b5",
        "layer_id": "udk_nat_landmarks_pt",
        "timeframe": null,
        "feature_class": "Volcanic Activity",
        "feature_rank": 3,
        "is_visible": true,
        "is_labeled": true,
        "needs_review": false,
        "review_notes": null,
        "img_url": null,
        "last_edited": "2026-06-30",
        "last_editor": "postgres",
        "name_en": null,
        "name_ru": null,
        "name_abb_en": null,
        "name_abb_ru": null,
        "label_en": null,
        "label_ru": null,
        "descr_en": null,
        "descr_ru": null,
        "descr_html_en": "<!DOCTYPE HTML PUBLIC \"-//W3C//DTD HTML 4.0//EN\" \"http://www.w3.org/TR/REC-html40/strict.dtd\">\n<html><head><meta name=\"qrichtext\" content=\"1\" /><style type=\"text/css\">\np, li { white-space: pre-wrap; }\n</style></head><body style=\" font-family:'MS Shell Dlg 2'; font-size:10pt; font-weight:400; font-style:normal;\">\n<p style=\" margin-top:0px; margin-bottom:0px; margin-left:0px; margin-right:0px; -qt-block-indent:0; text-indent:0px;\">()</p></body></html>",
        "descr_html_ru": "<!DOCTYPE HTML PUBLIC \"-//W3C//DTD HTML 4.0//EN\" \"http://www.w3.org/TR/REC-html40/strict.dtd\">\n<html><head><meta name=\"qrichtext\" content=\"1\" /><style type=\"text/css\">\np, li { white-space: pre-wrap; }\n</style></head><body style=\" font-family:'MS Shell Dlg 2'; font-size:10pt; font-weight:400; font-style:normal;\">\n<p style=\" margin-top:0px; margin-bottom:0px; margin-left:0px; margin-right:0px; -qt-block-indent:0; text-indent:0px;\">()</p></body></html>",
        "url_en": null,
        "url_ru": null,
        "source_name": "WotC Underdark 3e",
        "source_url": "https://forgottenrealms.fandom.com/wiki/Underdark_(sourcebook)",
        "dnd_editions_str": "2e, 3e, 5e",
        "feature_levels_str": "Lowerdark, Middledark, Upperdark",
        "extra_str": null,
        "location_en": "southern Faerûn → Underdark",
        "name_alt_en_str": null,
        "location_ru": "южный Фаэрун → Подземье",
        "name_alt_ru_str": null,
        "geog_extent_centroid_md": "25° 54′ 24″ N 011° 23′ 54″ E",
        "geog_extent_centroid_fria": "25° 54′ 24″ N 042° 04′ 58″ W",
        "geog_extent_area_sq_km": null,
        "geog_extent_area_sq_miles": null,
        "geog_extent_length_km": null,
        "geog_extent_length_miles": null,
        "geog_extent_perimeter_km": null,
        "geog_extent_perimeter_miles": null,
        "geog_extent_bbox_md": null,
        "geog_extent_bbox_fria": null,
        "name_it": null,
        "name_abb_it": null,
        "label_it": null,
        "descr_it": null,
        "descr_html_it": null,
        "url_it": null,
        "location_it": "Faerûn meridionale → Underdark",
        "name_alt_it_str": null,
        "topical_tags": "",
        "related_location_tags": "",
        "related_cultures_tags": "",
        "related_factions_tags": ""
      },
      "geometry": {
        "type": "MultiPoint",
        "coordinates": [
          [
            -42.082951983070025,
            25.906745270681597
          ]
        ]
      }
    }
  ]
}