{
  "type": "FeatureCollection",
  "name": "sql_statement",
  "crs": {
    "type": "name",
    "properties": {
      "name": "urn:ogc:def:crs:OGC:1.3:CRS84"
    }
  },
  "features": [
    {
      "type": "Feature",
      "properties": {
        "uuid": "1119bc7b-37f2-4fe6-87d4-85eebf4187ee",
        "layer_id": "udk_civ_important_sites_pt",
        "timeframe": null,
        "feature_class": "Ruins",
        "feature_rank": 5,
        "is_visible": true,
        "is_labeled": true,
        "needs_review": false,
        "review_notes": null,
        "img_url": null,
        "last_edited": "2026-07-14",
        "last_editor": "postgres",
        "name_en": "Tethyamar",
        "name_ru": "Тетиамар",
        "name_abb_en": null,
        "name_abb_ru": null,
        "label_en": "Tethyamar",
        "label_ru": "Тетиамар",
        "descr_en": "A sprawling dwarven kingdom built along deep ore veins beneath the Desertsmouth Mountains, known for its extensive mines and forged goods. It fell to orc and goblin invaders in the 12th century DR, with its royal line continuing in exile.",
        "descr_ru": "Обширное дварфийское королевство, построенное вдоль глубоких рудных жил под Горами Устья Пустыни, известное своими обширными шахтами и коваными изделиями. Пало под натиском орков и гоблинов в 12 веке ЛД, его королевская линия продолжилась в изгнании.",
        "descr_html_en": "<!DOCTYPE HTML PUBLIC \"-//W3C//DTD HTML 4.0//EN\" \"http://www.w3.org/TR/REC-html40/strict.dtd\">\n<html><head><meta name=\"qrichtext\" content=\"1\" /><style type=\"text/css\">\np, li { white-space: pre-wrap; }\n</style></head><body style=\" font-family:'MS Shell Dlg 2'; font-size:10pt; font-weight:400; font-style:normal;\">\n<p style=\" margin-top:0px; margin-bottom:0px; margin-left:0px; margin-right:0px; -qt-block-indent:0; text-indent:0px;\">()</p></body></html>",
        "descr_html_ru": "<!DOCTYPE HTML PUBLIC \"-//W3C//DTD HTML 4.0//EN\" \"http://www.w3.org/TR/REC-html40/strict.dtd\">\n<html><head><meta name=\"qrichtext\" content=\"1\" /><style type=\"text/css\">\np, li { white-space: pre-wrap; }\n</style></head><body style=\" font-family:'MS Shell Dlg 2'; font-size:10pt; font-weight:400; font-style:normal;\">\n<p style=\" margin-top:0px; margin-bottom:0px; margin-left:0px; margin-right:0px; -qt-block-indent:0; text-indent:0px;\">()</p></body></html>",
        "url_en": "https://forgottenrealms.fandom.com/wiki/Tethyamar",
        "url_ru": null,
        "source_name": "WotC Underdark 3e",
        "source_url": "https://forgottenrealms.fandom.com/wiki/Underdark_(sourcebook)",
        "dnd_editions_str": "3e, 5e",
        "feature_levels_str": "Upperdark",
        "extra_str": "topical_tags: [\"dwarven\", \"kingdom\", \"mines\", \"underground\", \"trade\", \"fall\", \"exile\", \"mining\"] | related_cultures_tags: [\"dwarves\", \"orcs\", \"goblins\", \"barghests\"] | related_factions_tags: [\"Zhentarim\", \"Iron House\", \"Mithril Legion\"] | related_location_tags: [\"Desertsmouth Mountains\", \"Far Hills\", \"Storm Horns\", \"Cormyr\", \"Anauria\", \"Asram\", \"Cormanthyr\", \"Hlondath\"]",
        "location_en": "central Faerûn → Upperdark → Buried Realms",
        "name_alt_en_str": null,
        "location_ru": "центральный Фаэрун → Верхнее Подземье → Погребённые Царства",
        "name_alt_ru_str": null,
        "geog_extent_centroid_md": "43° 18′ 29″ N 002° 40′ 26″ W",
        "geog_extent_centroid_fria": "43° 18′ 29″ N 056° 09′ 20″ W",
        "geog_extent_area_sq_km": null,
        "geog_extent_area_sq_miles": null,
        "geog_extent_length_km": null,
        "geog_extent_length_miles": null,
        "geog_extent_perimeter_km": null,
        "geog_extent_perimeter_miles": null,
        "geog_extent_bbox_md": null,
        "geog_extent_bbox_fria": null,
        "name_it": "Tethyamar",
        "name_abb_it": null,
        "label_it": "Tethyamar",
        "descr_it": "Tethyamar è un vasto regno nanico costruito lungo profondi filoni minerari sotto i Monti Desertsmouth, noto per le sue estese miniere e i suoi prodotti forgiati. Cadde in mano a invasori orchi e goblin nel XII secolo DR, con la sua linea reale che continuò in esilio.",
        "descr_html_it": null,
        "url_it": null,
        "location_it": "Faerûn centrale → Upperdark → Reami Sepolti",
        "name_alt_it_str": null,
        "topical_tags": "dwarven, kingdom, mines, underground, trade, fall, exile, mining",
        "related_location_tags": "Desertsmouth Mountains, Far Hills, Storm Horns, Cormyr, Anauria, Asram, Cormanthyr, Hlondath",
        "related_cultures_tags": "dwarves, orcs, goblins, barghests",
        "related_factions_tags": "Zhentarim, Iron House, Mithril Legion"
      },
      "geometry": {
        "type": "MultiPoint",
        "coordinates": [
          [
            -56.155601903662465,
            43.30820411910535
          ]
        ]
      }
    },
    {
      "type": "Feature",
      "properties": {
        "uuid": "23087ae8-e7b3-4790-8fad-86d95e42478d",
        "layer_id": "udk_civ_important_sites_pt",
        "timeframe": null,
        "feature_class": "Ruins",
        "feature_rank": 5,
        "is_visible": true,
        "is_labeled": true,
        "needs_review": false,
        "review_notes": "exclude from wiki link auto-ageneration",
        "img_url": null,
        "last_edited": "2026-07-13",
        "last_editor": "postgres",
        "name_en": "Sorath-Nu-Sum",
        "name_ru": "Сорат-Ну-Сум",
        "name_abb_en": null,
        "name_abb_ru": null,
        "label_en": "Sorath-Nu-Sum",
        "label_ru": "Сорат-Ну-Сум",
        "descr_en": null,
        "descr_ru": null,
        "descr_html_en": "<!DOCTYPE HTML PUBLIC \"-//W3C//DTD HTML 4.0//EN\" \"http://www.w3.org/TR/REC-html40/strict.dtd\">\n<html><head><meta name=\"qrichtext\" content=\"1\" /><style type=\"text/css\">\np, li { white-space: pre-wrap; }\n</style></head><body style=\" font-family:'MS Shell Dlg 2'; font-size:10pt; font-weight:400; font-style:normal;\">\n<p style=\" margin-top:0px; margin-bottom:0px; margin-left:0px; margin-right:0px; -qt-block-indent:0; text-indent:0px;\">()</p></body></html>",
        "descr_html_ru": "<!DOCTYPE HTML PUBLIC \"-//W3C//DTD HTML 4.0//EN\" \"http://www.w3.org/TR/REC-html40/strict.dtd\">\n<html><head><meta name=\"qrichtext\" content=\"1\" /><style type=\"text/css\">\np, li { white-space: pre-wrap; }\n</style></head><body style=\" font-family:'MS Shell Dlg 2'; font-size:10pt; font-weight:400; font-style:normal;\">\n<p style=\" margin-top:0px; margin-bottom:0px; margin-left:0px; margin-right:0px; -qt-block-indent:0; text-indent:0px;\">()</p></body></html>",
        "url_en": null,
        "url_ru": "Сорат-Ну-Сум",
        "source_name": "WotC Underdark 3e",
        "source_url": "https://forgottenrealms.fandom.com/wiki/Underdark_(sourcebook)",
        "dnd_editions_str": "3e, 5e",
        "feature_levels_str": "Middledark",
        "extra_str": null,
        "location_en": "central Faerûn → Middledark → Deep Wastes",
        "name_alt_en_str": null,
        "location_ru": "центральный Фаэрун → Среднее Подземье → Глубинные Пустоши",
        "name_alt_ru_str": null,
        "geog_extent_centroid_md": "42° 33′ 21″ N 002° 46′ 46″ E",
        "geog_extent_centroid_fria": "42° 33′ 21″ N 050° 42′ 06″ W",
        "geog_extent_area_sq_km": null,
        "geog_extent_area_sq_miles": null,
        "geog_extent_length_km": null,
        "geog_extent_length_miles": null,
        "geog_extent_perimeter_km": null,
        "geog_extent_perimeter_miles": null,
        "geog_extent_bbox_md": null,
        "geog_extent_bbox_fria": null,
        "name_it": "Sorath-Nu-Sum",
        "name_abb_it": null,
        "label_it": "Sorath-Nu-Sum",
        "descr_it": null,
        "descr_html_it": null,
        "url_it": null,
        "location_it": "Faerûn centrale → Middledark → Desolazioni Profonde",
        "name_alt_it_str": null,
        "topical_tags": "",
        "related_location_tags": "",
        "related_cultures_tags": "",
        "related_factions_tags": ""
      },
      "geometry": {
        "type": "MultiPoint",
        "coordinates": [
          [
            -50.701915063070324,
            42.55595070151516
          ]
        ]
      }
    },
    {
      "type": "Feature",
      "properties": {
        "uuid": "3aeb2242-68df-45ca-ad83-232e9acba3b9",
        "layer_id": "udk_civ_important_sites_pt",
        "timeframe": null,
        "feature_class": "Ruins",
        "feature_rank": 5,
        "is_visible": true,
        "is_labeled": true,
        "needs_review": false,
        "review_notes": null,
        "img_url": null,
        "last_edited": "2026-07-14",
        "last_editor": "postgres",
        "name_en": "Oghrann",
        "name_ru": "Огранн",
        "name_abb_en": null,
        "name_abb_ru": null,
        "label_en": "Oghrann",
        "label_ru": "Огранн",
        "descr_en": "A dwarven monarchy founded on the Plains of Tun in central Faerûn, encompassing the River Tun valley, the Sunset Mountains, and the Storm Horns. It claimed the Helbryn as a hunting reserve and included the forest known as Wurgymvudd. The realm fell after disease and monstrous attacks, with survivors fleeing to the Far Hills.",
        "descr_ru": "Дварфийская монархия, основанная на Равнинах Туна в центральном Фаэруне, охватывающая долину реки Тун, Закатные Горы и Штормовые Рога. Она объявила Хелбрин охотничьим заповедником и включала лес, известный как Вургимвудд. Королевство пало после болезней и атак чудовищ, выжившие бежали в Дальние Холмы.",
        "descr_html_en": "<!DOCTYPE HTML PUBLIC \"-//W3C//DTD HTML 4.0//EN\" \"http://www.w3.org/TR/REC-html40/strict.dtd\">\n<html><head><meta name=\"qrichtext\" content=\"1\" /><style type=\"text/css\">\np, li { white-space: pre-wrap; }\n</style></head><body style=\" font-family:'MS Shell Dlg 2'; font-size:10pt; font-weight:400; font-style:normal;\">\n<p style=\" margin-top:0px; margin-bottom:0px; margin-left:0px; margin-right:0px; -qt-block-indent:0; text-indent:0px;\">()</p></body></html>",
        "descr_html_ru": "<!DOCTYPE HTML PUBLIC \"-//W3C//DTD HTML 4.0//EN\" \"http://www.w3.org/TR/REC-html40/strict.dtd\">\n<html><head><meta name=\"qrichtext\" content=\"1\" /><style type=\"text/css\">\np, li { white-space: pre-wrap; }\n</style></head><body style=\" font-family:'MS Shell Dlg 2'; font-size:10pt; font-weight:400; font-style:normal;\">\n<p style=\" margin-top:0px; margin-bottom:0px; margin-left:0px; margin-right:0px; -qt-block-indent:0; text-indent:0px;\">()</p></body></html>",
        "url_en": "https://forgottenrealms.fandom.com/wiki/Oghrann",
        "url_ru": null,
        "source_name": "WotC Underdark 3e",
        "source_url": "https://forgottenrealms.fandom.com/wiki/Underdark_(sourcebook)",
        "dnd_editions_str": "3e, 5e",
        "feature_levels_str": "Upperdark",
        "extra_str": "topical_tags: [\"dwarven\", \"monarchy\", \"plains\", \"mountains\", \"valley\", \"forest\", \"hunting\", \"realm\"] | related_cultures_tags: [\"Shield dwarves\"] | related_location_tags: [\"Plains of Tun\", \"River Tun\", \"Sunset Mountains\", \"Storm Horns\", \"Boareskyr's Forest\", \"Helbryn\", \"Far Hills\"]",
        "location_en": "western Faerûn → Upperdark",
        "name_alt_en_str": "Wurgymvudd",
        "location_ru": "западный Фаэрун → Верхнее Подземье",
        "name_alt_ru_str": "Вургимвудд",
        "geog_extent_centroid_md": "38° 13′ 14″ N 008° 31′ 57″ W",
        "geog_extent_centroid_fria": "38° 13′ 14″ N 062° 00′ 50″ W",
        "geog_extent_area_sq_km": null,
        "geog_extent_area_sq_miles": null,
        "geog_extent_length_km": null,
        "geog_extent_length_miles": null,
        "geog_extent_perimeter_km": null,
        "geog_extent_perimeter_miles": null,
        "geog_extent_bbox_md": null,
        "geog_extent_bbox_fria": null,
        "name_it": "Oghrann",
        "name_abb_it": null,
        "label_it": "Oghrann",
        "descr_it": "Oghrann è una monarchia nanica fondata sulle Pianure di Tun nel Faerûn centrale, che comprende la valle del Fiume Tun, i Monti del Tramonto e i Corni della Tempesta. Rivendicava l'Helbryn come riserva di caccia e includeva la foresta nota come Wurgymvudd. Il regno cadde dopo malattie e attacchi mostruosi, con i sopravvissuti fuggiti alle Colline Lontane.",
        "descr_html_it": null,
        "url_it": null,
        "location_it": "Faerûn occidentale → Upperdark",
        "name_alt_it_str": "Wurgymvudd",
        "topical_tags": "dwarven, monarchy, plains, mountains, valley, forest, hunting, realm",
        "related_location_tags": "Plains of Tun, River Tun, Sunset Mountains, Storm Horns, Boareskyr's Forest, Helbryn, Far Hills",
        "related_cultures_tags": "Shield dwarves",
        "related_factions_tags": ""
      },
      "geometry": {
        "type": "MultiPoint",
        "coordinates": [
          [
            -62.01413568773102,
            38.22066394836109
          ]
        ]
      }
    },
    {
      "type": "Feature",
      "properties": {
        "uuid": "40d287fd-ef9a-4935-a59c-9fe36c12fbc0",
        "layer_id": "udk_civ_important_sites_pt",
        "timeframe": null,
        "feature_class": "Ruins",
        "feature_rank": 5,
        "is_visible": true,
        "is_labeled": true,
        "needs_review": false,
        "review_notes": null,
        "img_url": null,
        "last_edited": "2026-07-14",
        "last_editor": "postgres",
        "name_en": "Philock",
        "name_ru": "Филок",
        "name_abb_en": null,
        "name_abb_ru": null,
        "label_en": "Philock",
        "label_ru": "Филок",
        "descr_en": "An ancient Netherese city located in a rift within a vast cavern system beneath the Wood of Sharp Teeth. By the late 14th century DR, it lay in ruins, buried under rubble from centuries of cave-ins and landslides.",
        "descr_ru": "Древний нетерильский город, расположенный в расщелине внутри обширной пещерной системы под Лесом Острых Зубов. К концу 14 века ЛД лежал в руинах, погребённый под обломками вековых обвалов и оползней.",
        "descr_html_en": "<!DOCTYPE HTML PUBLIC \"-//W3C//DTD HTML 4.0//EN\" \"http://www.w3.org/TR/REC-html40/strict.dtd\">\n<html><head><meta name=\"qrichtext\" content=\"1\" /><style type=\"text/css\">\np, li { white-space: pre-wrap; }\n</style></head><body style=\" font-family:'MS Shell Dlg 2'; font-size:10pt; font-weight:400; font-style:normal;\">\n<p style=\" margin-top:0px; margin-bottom:0px; margin-left:0px; margin-right:0px; -qt-block-indent:0; text-indent:0px;\">()</p></body></html>",
        "descr_html_ru": "<!DOCTYPE HTML PUBLIC \"-//W3C//DTD HTML 4.0//EN\" \"http://www.w3.org/TR/REC-html40/strict.dtd\">\n<html><head><meta name=\"qrichtext\" content=\"1\" /><style type=\"text/css\">\np, li { white-space: pre-wrap; }\n</style></head><body style=\" font-family:'MS Shell Dlg 2'; font-size:10pt; font-weight:400; font-style:normal;\">\n<p style=\" margin-top:0px; margin-bottom:0px; margin-left:0px; margin-right:0px; -qt-block-indent:0; text-indent:0px;\">()</p></body></html>",
        "url_en": "https://forgottenrealms.fandom.com/wiki/Philock",
        "url_ru": null,
        "source_name": "WotC Underdark 3e",
        "source_url": "https://forgottenrealms.fandom.com/wiki/Underdark_(sourcebook)",
        "dnd_editions_str": "3e, 5e",
        "feature_levels_str": "Upperdark",
        "extra_str": "topical_tags: [\"ruins\", \"city\", \"netherese\", \"caverns\", \"upperdark\"] | related_cultures_tags: [\"Netherese\", \"drow\"] | related_location_tags: [\"Netherese Caverns\", \"Upperdark\", \"Wood of Sharp Teeth\", \"Western Heartlands\"]",
        "location_en": "western Faerûn → Upperdark → Netherese Caverns",
        "name_alt_en_str": null,
        "location_ru": "западный Фаэрун → Верхнее Подземье → Незерильские Пещеры",
        "name_alt_ru_str": null,
        "geog_extent_centroid_md": "36° 06′ 18″ N 012° 57′ 20″ W",
        "geog_extent_centroid_fria": "36° 06′ 18″ N 066° 26′ 13″ W",
        "geog_extent_area_sq_km": null,
        "geog_extent_area_sq_miles": null,
        "geog_extent_length_km": null,
        "geog_extent_length_miles": null,
        "geog_extent_perimeter_km": null,
        "geog_extent_perimeter_miles": null,
        "geog_extent_bbox_md": null,
        "geog_extent_bbox_fria": null,
        "name_it": "Philock",
        "name_abb_it": null,
        "label_it": "Philock",
        "descr_it": "Philock è un'antica città di Netheril situata in una fessura all'interno di un vasto sistema di caverne sotto il Bosco dei Denti Affilati. Entro la fine del XIV secolo DR, giaceva in rovina, sepolta sotto macerie di secoli di crolli e frane.",
        "descr_html_it": null,
        "url_it": null,
        "location_it": "Faerûn occidentale → Upperdark → Caverne di Netheril",
        "name_alt_it_str": null,
        "topical_tags": "ruins, city, netherese, caverns, upperdark",
        "related_location_tags": "Netherese Caverns, Upperdark, Wood of Sharp Teeth, Western Heartlands",
        "related_cultures_tags": "Netherese, drow",
        "related_factions_tags": ""
      },
      "geometry": {
        "type": "MultiPoint",
        "coordinates": [
          [
            -66.43714597869167,
            36.105142212226184
          ]
        ]
      }
    },
    {
      "type": "Feature",
      "properties": {
        "uuid": "51e2f48e-020f-48ae-ac56-bedbf6abd0bd",
        "layer_id": "udk_civ_important_sites_pt",
        "timeframe": null,
        "feature_class": "Fortification",
        "feature_rank": 4,
        "is_visible": true,
        "is_labeled": true,
        "needs_review": false,
        "review_notes": "exclude from wiki link auto-ageneration",
        "img_url": null,
        "last_edited": "2026-07-13",
        "last_editor": "postgres",
        "name_en": "Citadel of the Fiendish Slayer",
        "name_ru": "Цитадель Губителя Демонов",
        "name_abb_en": "Fiendslayer Citadel",
        "name_abb_ru": null,
        "label_en": "Fiendslayer Citadel",
        "label_ru": "Цитадель Губителя Демонов",
        "descr_en": null,
        "descr_ru": null,
        "descr_html_en": "<!DOCTYPE HTML PUBLIC \"-//W3C//DTD HTML 4.0//EN\" \"http://www.w3.org/TR/REC-html40/strict.dtd\">\n<html><head><meta name=\"qrichtext\" content=\"1\" /><style type=\"text/css\">\np, li { white-space: pre-wrap; }\n</style></head><body style=\" font-family:'MS Shell Dlg 2'; font-size:12pt; font-weight:400; font-style:normal;\">\n<p style=\" margin-top:0px; margin-bottom:0px; margin-left:0px; margin-right:0px; -qt-block-indent:0; text-indent:0px;\"><span style=\" font-size:10pt;\">()</span></p></body></html>",
        "descr_html_ru": "<!DOCTYPE HTML PUBLIC \"-//W3C//DTD HTML 4.0//EN\" \"http://www.w3.org/TR/REC-html40/strict.dtd\">\n<html><head><meta name=\"qrichtext\" content=\"1\" /><style type=\"text/css\">\np, li { white-space: pre-wrap; }\n</style></head><body style=\" font-family:'MS Shell Dlg 2'; font-size:12pt; font-weight:400; font-style:normal;\">\n<p style=\" margin-top:0px; margin-bottom:0px; margin-left:0px; margin-right:0px; -qt-block-indent:0; text-indent:0px;\"><span style=\" font-size:10pt;\">()</span></p></body></html>",
        "url_en": null,
        "url_ru": null,
        "source_name": "WotC Underdark 3e",
        "source_url": "https://forgottenrealms.fandom.com/wiki/Underdark_(sourcebook)",
        "dnd_editions_str": "3e, 5e",
        "feature_levels_str": "Lowerdark",
        "extra_str": null,
        "location_en": "central Faerûn → Lowerdark → Glimmersea",
        "name_alt_en_str": null,
        "location_ru": "центральный Фаэрун → Нижнее Подземье → Мерцающее Море",
        "name_alt_ru_str": null,
        "geog_extent_centroid_md": "32° 15′ 27″ N 011° 10′ 05″ E",
        "geog_extent_centroid_fria": "32° 15′ 27″ N 042° 18′ 47″ W",
        "geog_extent_area_sq_km": null,
        "geog_extent_area_sq_miles": null,
        "geog_extent_length_km": null,
        "geog_extent_length_miles": null,
        "geog_extent_perimeter_km": null,
        "geog_extent_perimeter_miles": null,
        "geog_extent_bbox_md": null,
        "geog_extent_bbox_fria": null,
        "name_it": "Cittadella dello Sterminatore Diabolico",
        "name_abb_it": null,
        "label_it": "Cittadella dello Sterminatore Diabolico",
        "descr_it": null,
        "descr_html_it": null,
        "url_it": null,
        "location_it": "Faerûn centrale → Lowerdark → Mare Scintillante",
        "name_alt_it_str": null,
        "topical_tags": "",
        "related_location_tags": "",
        "related_cultures_tags": "",
        "related_factions_tags": ""
      },
      "geometry": {
        "type": "MultiPoint",
        "coordinates": [
          [
            -42.31322037906691,
            32.25772797922289
          ]
        ]
      }
    },
    {
      "type": "Feature",
      "properties": {
        "uuid": "2277a5b2-80ff-4327-9fc6-ea7b92d19375",
        "layer_id": "udk_civ_important_sites_pt",
        "timeframe": null,
        "feature_class": "Fortification",
        "feature_rank": 4,
        "is_visible": true,
        "is_labeled": true,
        "needs_review": false,
        "review_notes": "exclude from wiki link auto-ageneration",
        "img_url": null,
        "last_edited": "2026-07-13",
        "last_editor": "postgres",
        "name_en": "Shape of Water",
        "name_ru": "Лик Воды",
        "name_abb_en": null,
        "name_abb_ru": null,
        "label_en": "Shape of Water",
        "label_ru": "Лик Воды",
        "descr_en": "A notable aboleth underwater fortified settlement.",
        "descr_ru": null,
        "descr_html_en": "<!DOCTYPE HTML PUBLIC \"-//W3C//DTD HTML 4.0//EN\" \"http://www.w3.org/TR/REC-html40/strict.dtd\">\n<html><head><meta name=\"qrichtext\" content=\"1\" /><style type=\"text/css\">\np, li { white-space: pre-wrap; }\n</style></head><body style=\" font-family:'MS Shell Dlg 2'; font-size:10pt; font-weight:400; font-style:normal;\">\n<p style=\" margin-top:0px; margin-bottom:0px; margin-left:0px; margin-right:0px; -qt-block-indent:0; text-indent:0px;\">()</p></body></html>",
        "descr_html_ru": "<!DOCTYPE HTML PUBLIC \"-//W3C//DTD HTML 4.0//EN\" \"http://www.w3.org/TR/REC-html40/strict.dtd\">\n<html><head><meta name=\"qrichtext\" content=\"1\" /><style type=\"text/css\">\np, li { white-space: pre-wrap; }\n</style></head><body style=\" font-family:'MS Shell Dlg 2'; font-size:10pt; font-weight:400; font-style:normal;\">\n<p style=\" margin-top:0px; margin-bottom:0px; margin-left:0px; margin-right:0px; -qt-block-indent:0; text-indent:0px;\">()</p></body></html>",
        "url_en": null,
        "url_ru": null,
        "source_name": "WotC Underdark 3e",
        "source_url": "https://forgottenrealms.fandom.com/wiki/Underdark_(sourcebook)",
        "dnd_editions_str": "3e, 5e",
        "feature_levels_str": "Lowerdark",
        "extra_str": null,
        "location_en": "eastern Faerûn → Lowerdark → Glimmersea",
        "name_alt_en_str": null,
        "location_ru": "восточный Фаэрун → Нижнее Подземье → Мерцающее Море",
        "name_alt_ru_str": null,
        "geog_extent_centroid_md": "29° 11′ 07″ N 016° 32′ 17″ E",
        "geog_extent_centroid_fria": "29° 11′ 07″ N 036° 56′ 36″ W",
        "geog_extent_area_sq_km": null,
        "geog_extent_area_sq_miles": null,
        "geog_extent_length_km": null,
        "geog_extent_length_miles": null,
        "geog_extent_perimeter_km": null,
        "geog_extent_perimeter_miles": null,
        "geog_extent_bbox_md": null,
        "geog_extent_bbox_fria": null,
        "name_it": "Forma d'Acqua",
        "name_abb_it": null,
        "label_it": "Forma d'Acqua",
        "descr_it": null,
        "descr_html_it": null,
        "url_it": null,
        "location_it": "Faerûn orientale → Lowerdark → Mare Scintillante",
        "name_alt_it_str": null,
        "topical_tags": "",
        "related_location_tags": "",
        "related_cultures_tags": "",
        "related_factions_tags": ""
      },
      "geometry": {
        "type": "MultiPoint",
        "coordinates": [
          [
            -36.94339568756108,
            29.185493835210465
          ]
        ]
      }
    },
    {
      "type": "Feature",
      "properties": {
        "uuid": "595d8f6f-3953-43f7-a6cf-9b03a2ce9920",
        "layer_id": "udk_civ_important_sites_pt",
        "timeframe": null,
        "feature_class": "Cavern",
        "feature_rank": 5,
        "is_visible": true,
        "is_labeled": true,
        "needs_review": false,
        "review_notes": null,
        "img_url": null,
        "last_edited": "2026-07-14",
        "last_editor": "postgres",
        "name_en": "Gduar's Garden",
        "name_ru": "Гдуаров Сад",
        "name_abb_en": null,
        "name_abb_ru": null,
        "label_en": "Gduar's Garden",
        "label_ru": "Гдуаров Сад",
        "descr_en": "A small cavern in the upper Darklands, filled with cultivated fungi and a bioluminescent haze of digestive spores. It was tended by a fungal treant aberration that kept a powerful magical item.",
        "descr_ru": "Небольшая пещера в верхних Тёмных Землях, заполненная культивированными грибами и биолюминесцентной дымкой пищеварительных спор. За ней ухаживал грибной треант-урод, хранивший могущественный магический предмет.",
        "descr_html_en": "<!DOCTYPE HTML PUBLIC \"-//W3C//DTD HTML 4.0//EN\" \"http://www.w3.org/TR/REC-html40/strict.dtd\">\n<html><head><meta name=\"qrichtext\" content=\"1\" /><style type=\"text/css\">\np, li { white-space: pre-wrap; }\n</style></head><body style=\" font-family:'MS Shell Dlg 2'; font-size:10pt; font-weight:400; font-style:normal;\">\n<p style=\" margin-top:0px; margin-bottom:0px; margin-left:0px; margin-right:0px; -qt-block-indent:0; text-indent:0px;\">()</p></body></html>",
        "descr_html_ru": "<!DOCTYPE HTML PUBLIC \"-//W3C//DTD HTML 4.0//EN\" \"http://www.w3.org/TR/REC-html40/strict.dtd\">\n<html><head><meta name=\"qrichtext\" content=\"1\" /><style type=\"text/css\">\np, li { white-space: pre-wrap; }\n</style></head><body style=\" font-family:'MS Shell Dlg 2'; font-size:10pt; font-weight:400; font-style:normal;\">\n<p style=\" margin-top:0px; margin-bottom:0px; margin-left:0px; margin-right:0px; -qt-block-indent:0; text-indent:0px;\">()</p></body></html>",
        "url_en": "https://forgottenrealms.fandom.com/wiki/Gduar%27s_Garden",
        "url_ru": null,
        "source_name": "WotC Underdark 3e",
        "source_url": "https://forgottenrealms.fandom.com/wiki/Underdark_(sourcebook)",
        "dnd_editions_str": "3e, 5e",
        "feature_levels_str": "Upperdark",
        "extra_str": "topical_tags: [\"cavern\", \"fungi\", \"bioluminescence\", \"spores\", \"earth_node\", \"lair\"] | related_location_tags: [\"Darklands\", \"Underdark\", \"Chondalwood\", \"Upperdark\"]",
        "location_en": "southern Faerûn → Upperdark → Darklands",
        "name_alt_en_str": null,
        "location_ru": "южный Фаэрун → Верхнее Подземье → Тёмные Земли",
        "name_alt_ru_str": null,
        "geog_extent_centroid_md": "24° 16′ 52″ N 003° 40′ 28″ E",
        "geog_extent_centroid_fria": "24° 16′ 52″ N 049° 48′ 25″ W",
        "geog_extent_area_sq_km": null,
        "geog_extent_area_sq_miles": null,
        "geog_extent_length_km": null,
        "geog_extent_length_miles": null,
        "geog_extent_perimeter_km": null,
        "geog_extent_perimeter_miles": null,
        "geog_extent_bbox_md": null,
        "geog_extent_bbox_fria": null,
        "name_it": "Giardino di Gduar",
        "name_abb_it": null,
        "label_it": "Giardino di Gduar",
        "descr_it": "Il Giardino di Gduar è una piccola caverna nelle Darklands superiori, piena di funghi coltivati e una foschia bioluminescente di spore digestive. Era curato da un'aberrazione fungina a forma di treant che custodiva un potente oggetto magico.",
        "descr_html_it": null,
        "url_it": null,
        "location_it": "Faerûn meridionale → Upperdark → Terre Oscure",
        "name_alt_it_str": null,
        "topical_tags": "cavern, fungi, bioluminescence, spores, earth_node, lair",
        "related_location_tags": "Darklands, Underdark, Chondalwood, Upperdark",
        "related_cultures_tags": "",
        "related_factions_tags": ""
      },
      "geometry": {
        "type": "MultiPoint",
        "coordinates": [
          [
            -49.80694807386077,
            24.281255979762065
          ]
        ]
      }
    },
    {
      "type": "Feature",
      "properties": {
        "uuid": "0bcdaa39-4077-4357-8039-9d98f1672d38",
        "layer_id": "udk_civ_important_sites_pt",
        "timeframe": null,
        "feature_class": "Ruins",
        "feature_rank": 5,
        "is_visible": true,
        "is_labeled": true,
        "needs_review": false,
        "review_notes": null,
        "img_url": null,
        "last_edited": "2026-07-14",
        "last_editor": "postgres",
        "name_en": "Oozing Ruin",
        "name_ru": "Руины Слизи",
        "name_abb_en": null,
        "name_abb_ru": null,
        "label_en": "Oozing Ruin",
        "label_ru": "Руины Слизи",
        "descr_en": "This ruined drow city in Great Bhaerynden was destroyed when its cavern collapsed. Now just a field of rubble, the remnants of its structures are accessible through cracks in the stone, serving as lairs for the oozes and aberrant monsters that infest the darkness.",
        "descr_ru": "Город дроу в домене Великий Бэриндэн Подземья, расположенный в отдалённом регионе Средних Тёмных Земель под лугами Шаара. Был построен в трёх огромных пещерах и был известен поклонением слизям и студням. Город был разрушен, когда его потолок пещеры обрушился после Чумных Заклинаний.",
        "descr_html_en": "<!DOCTYPE HTML PUBLIC \"-//W3C//DTD HTML 4.0//EN\" \"http://www.w3.org/TR/REC-html40/strict.dtd\">\n<html><head><meta name=\"qrichtext\" content=\"1\" /><style type=\"text/css\">\np, li { white-space: pre-wrap; }\n</style></head><body style=\" font-family:'MS Shell Dlg 2'; font-size:10pt; font-weight:400; font-style:normal;\">\n<p style=\" margin-top:0px; margin-bottom:0px; margin-left:0px; margin-right:0px; -qt-block-indent:0; text-indent:0px;\">—</p></body></html>",
        "descr_html_ru": null,
        "url_en": "https://forgottenrealms.fandom.com/wiki/Llurth_Dreier",
        "url_ru": null,
        "source_name": "WotC Underdark 3e",
        "source_url": "https://forgottenrealms.fandom.com/wiki/Underdark_(sourcebook)",
        "dnd_editions_str": "5e",
        "feature_levels_str": "Middledark",
        "extra_str": "topical_tags: [\"city\", \"underdark\", \"drow\", \"oozes\", \"slimes\", \"aboleth\", \"ghaunadaur\", \"ruins\", \"slave\"] | related_cultures_tags: [\"drow\", \"Dreiryn\", \"aboleth\", \"slave races\"] | related_factions_tags: [\"Fanatics of the Overflowing Pit\"] | related_location_tags: [\"Great Bhaerynden\", \"Middledark\", \"Underdark\", \"Shaar\", \"Great Rift\", \"Deepwild\", \"Llurthogl\", \"Ormpur\"]",
        "location_en": "southern Faerûn → Middledark → Great Bhaerynden",
        "name_alt_en_str": "Llurth Dreir, City of Ooze, Accursed City",
        "location_ru": "южный Фаэрун → Среднее Подземье → Великий Бхаэринден",
        "name_alt_ru_str": "Ллурт Дрейр, Проклятый Город, Город Слизи",
        "geog_extent_centroid_md": "21° 39′ 29″ N 004° 36′ 34″ E",
        "geog_extent_centroid_fria": "21° 39′ 29″ N 048° 52′ 18″ W",
        "geog_extent_area_sq_km": null,
        "geog_extent_area_sq_miles": null,
        "geog_extent_length_km": null,
        "geog_extent_length_miles": null,
        "geog_extent_perimeter_km": null,
        "geog_extent_perimeter_miles": null,
        "geog_extent_bbox_md": null,
        "geog_extent_bbox_fria": null,
        "name_it": "Rovina Stillante",
        "name_abb_it": null,
        "label_it": "Rovina Stillante",
        "descr_it": "La Rovina Stillante è una città drow nel dominio di Great Bhaerynden del Sottosuolo, situata in una remota regione del middledark sotto le praterie dello Shaar. Fu costruita in tre enormi caverne ed era nota per il culto di melme e limi. La città fu distrutta quando il soffitto della sua caverna crollò dopo la Spellplague.",
        "descr_html_it": null,
        "url_it": null,
        "location_it": "Faerûn meridionale → Middledark → Grande Bhaerynden",
        "name_alt_it_str": "Llurth Dreir, Llurth Drier, La Città Maledetta, La Città del Melma, La Rovina Melmosa",
        "topical_tags": "city, underdark, drow, oozes, slimes, aboleth, ghaunadaur, ruins, slave",
        "related_location_tags": "Great Bhaerynden, Middledark, Underdark, Shaar, Great Rift, Deepwild, Llurthogl, Ormpur",
        "related_cultures_tags": "drow, Dreiryn, aboleth, slave races",
        "related_factions_tags": "Fanatics of the Overflowing Pit"
      },
      "geometry": {
        "type": "MultiPoint",
        "coordinates": [
          [
            -48.87181793993385,
            21.658258157620022
          ]
        ]
      }
    },
    {
      "type": "Feature",
      "properties": {
        "uuid": "6a98da98-c8e5-4cbd-aafa-d6d3988a286d",
        "layer_id": "udk_civ_important_sites_pt",
        "timeframe": null,
        "feature_class": "Ruins",
        "feature_rank": 5,
        "is_visible": true,
        "is_labeled": true,
        "needs_review": false,
        "review_notes": "exclude from wiki link auto-ageneration",
        "img_url": null,
        "last_edited": "2026-07-13",
        "last_editor": "postgres",
        "name_en": "Drowned Multum",
        "name_ru": "Затопленный Мултум",
        "name_abb_en": null,
        "name_abb_ru": null,
        "label_en": "Drowned Multum",
        "label_ru": "Затопленный Мултум",
        "descr_en": null,
        "descr_ru": null,
        "descr_html_en": "<!DOCTYPE HTML PUBLIC \"-//W3C//DTD HTML 4.0//EN\" \"http://www.w3.org/TR/REC-html40/strict.dtd\">\n<html><head><meta name=\"qrichtext\" content=\"1\" /><style type=\"text/css\">\np, li { white-space: pre-wrap; }\n</style></head><body style=\" font-family:'MS Shell Dlg 2'; font-size:10pt; font-weight:400; font-style:normal;\">\n<p style=\" margin-top:0px; margin-bottom:0px; margin-left:0px; margin-right:0px; -qt-block-indent:0; text-indent:0px;\">()</p></body></html>",
        "descr_html_ru": "<!DOCTYPE HTML PUBLIC \"-//W3C//DTD HTML 4.0//EN\" \"http://www.w3.org/TR/REC-html40/strict.dtd\">\n<html><head><meta name=\"qrichtext\" content=\"1\" /><style type=\"text/css\">\np, li { white-space: pre-wrap; }\n</style></head><body style=\" font-family:'MS Shell Dlg 2'; font-size:10pt; font-weight:400; font-style:normal;\">\n<p style=\" margin-top:0px; margin-bottom:0px; margin-left:0px; margin-right:0px; -qt-block-indent:0; text-indent:0px;\">()</p></body></html>",
        "url_en": null,
        "url_ru": null,
        "source_name": "WotC Underdark 3e",
        "source_url": "https://forgottenrealms.fandom.com/wiki/Underdark_(sourcebook)",
        "dnd_editions_str": "3e, 5e",
        "feature_levels_str": "Upperdark",
        "extra_str": null,
        "location_en": "central Faerûn → Upperdark → Deep Wastes",
        "name_alt_en_str": null,
        "location_ru": "центральный Фаэрун → Верхнее Подземье → Глубинные Пустоши",
        "name_alt_ru_str": null,
        "geog_extent_centroid_md": "38° 12′ 51″ N 004° 07′ 10″ E",
        "geog_extent_centroid_fria": "38° 12′ 51″ N 049° 21′ 42″ W",
        "geog_extent_area_sq_km": null,
        "geog_extent_area_sq_miles": null,
        "geog_extent_length_km": null,
        "geog_extent_length_miles": null,
        "geog_extent_perimeter_km": null,
        "geog_extent_perimeter_miles": null,
        "geog_extent_bbox_md": null,
        "geog_extent_bbox_fria": null,
        "name_it": "Multum Annegato",
        "name_abb_it": null,
        "label_it": "Multum Annegato",
        "descr_it": null,
        "descr_html_it": null,
        "url_it": null,
        "location_it": "Faerûn centrale → Upperdark → Desolazioni Profonde",
        "name_alt_it_str": null,
        "topical_tags": "",
        "related_location_tags": "",
        "related_cultures_tags": "",
        "related_factions_tags": ""
      },
      "geometry": {
        "type": "MultiPoint",
        "coordinates": [
          [
            -49.361912086784095,
            38.21442252841645
          ]
        ]
      }
    },
    {
      "type": "Feature",
      "properties": {
        "uuid": "700684db-232b-498d-b2e8-b4983262d500",
        "layer_id": "udk_civ_important_sites_pt",
        "timeframe": null,
        "feature_class": "Portal",
        "feature_rank": 5,
        "is_visible": true,
        "is_labeled": true,
        "needs_review": false,
        "review_notes": "exclude from wiki link auto-ageneration",
        "img_url": null,
        "last_edited": "2026-07-13",
        "last_editor": "postgres",
        "name_en": "Тomb Tapper Tomb",
        "name_ru": "Гробница Гробокопателей",
        "name_abb_en": null,
        "name_abb_ru": null,
        "label_en": "Тomb Tapper Tomb",
        "label_ru": "Гробница Гробокопателей",
        "descr_en": null,
        "descr_ru": null,
        "descr_html_en": "<!DOCTYPE HTML PUBLIC \"-//W3C//DTD HTML 4.0//EN\" \"http://www.w3.org/TR/REC-html40/strict.dtd\">\n<html><head><meta name=\"qrichtext\" content=\"1\" /><style type=\"text/css\">\np, li { white-space: pre-wrap; }\n</style></head><body style=\" font-family:'MS Shell Dlg 2'; font-size:10pt; font-weight:400; font-style:normal;\">\n<p style=\" margin-top:0px; margin-bottom:0px; margin-left:0px; margin-right:0px; -qt-block-indent:0; text-indent:0px;\">()</p></body></html>",
        "descr_html_ru": "<!DOCTYPE HTML PUBLIC \"-//W3C//DTD HTML 4.0//EN\" \"http://www.w3.org/TR/REC-html40/strict.dtd\">\n<html><head><meta name=\"qrichtext\" content=\"1\" /><style type=\"text/css\">\np, li { white-space: pre-wrap; }\n</style></head><body style=\" font-family:'MS Shell Dlg 2'; font-size:10pt; font-weight:400; font-style:normal;\">\n<p style=\" margin-top:0px; margin-bottom:0px; margin-left:0px; margin-right:0px; -qt-block-indent:0; text-indent:0px;\">()</p></body></html>",
        "url_en": null,
        "url_ru": null,
        "source_name": "WotC Underdark 3e",
        "source_url": "https://forgottenrealms.fandom.com/wiki/Underdark_(sourcebook)",
        "dnd_editions_str": "2e, 3e, 5e",
        "feature_levels_str": "Lowerdark",
        "extra_str": null,
        "location_en": "central Faerûn → Lowerdark → Buried Realms",
        "name_alt_en_str": null,
        "location_ru": "центральный Фаэрун → Нижнее Подземье → Погребённые Царства",
        "name_alt_ru_str": null,
        "geog_extent_centroid_md": "45° 44′ 05″ N 006° 06′ 05″ W",
        "geog_extent_centroid_fria": "45° 44′ 05″ N 059° 34′ 59″ W",
        "geog_extent_area_sq_km": null,
        "geog_extent_area_sq_miles": null,
        "geog_extent_length_km": null,
        "geog_extent_length_miles": null,
        "geog_extent_perimeter_km": null,
        "geog_extent_perimeter_miles": null,
        "geog_extent_bbox_md": null,
        "geog_extent_bbox_fria": null,
        "name_it": "Tomba del Tapper di Tombe",
        "name_abb_it": null,
        "label_it": "Tomba del Tapper di Tombe",
        "descr_it": null,
        "descr_html_it": null,
        "url_it": null,
        "location_it": "Faerûn centrale → Lowerdark → Reami Sepolti",
        "name_alt_it_str": null,
        "topical_tags": "",
        "related_location_tags": "",
        "related_cultures_tags": "",
        "related_factions_tags": ""
      },
      "geometry": {
        "type": "MultiPoint",
        "coordinates": [
          [
            -59.583102109758435,
            45.73494733429441
          ]
        ]
      }
    },
    {
      "type": "Feature",
      "properties": {
        "uuid": "72ee087e-97d0-4ba9-aeae-a18a48028e29",
        "layer_id": "udk_civ_important_sites_pt",
        "timeframe": null,
        "feature_class": "Ruins",
        "feature_rank": 5,
        "is_visible": true,
        "is_labeled": true,
        "needs_review": false,
        "review_notes": null,
        "img_url": null,
        "last_edited": "2026-07-14",
        "last_editor": "postgres",
        "name_en": "Rrinnoroth",
        "name_ru": "Рриннорот",
        "name_abb_en": null,
        "name_abb_ru": null,
        "label_en": "Rrinnoroth",
        "label_ru": "Рриннорот",
        "descr_en": "A former dwarven settlement in the Underdark beneath the Kuldin Peaks, this ghost town became the lair of a red dragon by the late 14th century DR.",
        "descr_ru": "Бывшее дварфийское поселение в Подземье под пиками Кулдин, этот город-призрак стал логовом красного дракона к концу 14 века ЛД.",
        "descr_html_en": "<!DOCTYPE HTML PUBLIC \"-//W3C//DTD HTML 4.0//EN\" \"http://www.w3.org/TR/REC-html40/strict.dtd\">\n<html><head><meta name=\"qrichtext\" content=\"1\" /><style type=\"text/css\">\np, li { white-space: pre-wrap; }\n</style></head><body style=\" font-family:'MS Shell Dlg 2'; font-size:10pt; font-weight:400; font-style:normal;\">\n<p style=\" margin-top:0px; margin-bottom:0px; margin-left:0px; margin-right:0px; -qt-block-indent:0; text-indent:0px;\">()</p></body></html>",
        "descr_html_ru": "<!DOCTYPE HTML PUBLIC \"-//W3C//DTD HTML 4.0//EN\" \"http://www.w3.org/TR/REC-html40/strict.dtd\">\n<html><head><meta name=\"qrichtext\" content=\"1\" /><style type=\"text/css\">\np, li { white-space: pre-wrap; }\n</style></head><body style=\" font-family:'MS Shell Dlg 2'; font-size:10pt; font-weight:400; font-style:normal;\">\n<p style=\" margin-top:0px; margin-bottom:0px; margin-left:0px; margin-right:0px; -qt-block-indent:0; text-indent:0px;\">()</p></body></html>",
        "url_en": "https://forgottenrealms.fandom.com/wiki/Rrinnoroth",
        "url_ru": null,
        "source_name": "WotC Underdark 3e",
        "source_url": "https://forgottenrealms.fandom.com/wiki/Underdark_(sourcebook)",
        "dnd_editions_str": "3e, 5e",
        "feature_levels_str": "Upperdark",
        "extra_str": "topical_tags: [\"underdark\", \"ghost_town\", \"dragon_lair\", \"dwarven_settlement\", \"ruins\"] | related_cultures_tags: [\"shield dwarves\"] | related_location_tags: [\"Shanatar\", \"Kuldin Peaks\", \"Tethyr\", \"Drakkalor\", \"Lands of Intrigue\"]",
        "location_en": "western Faerûn → Upperdark → Old Shanatar",
        "name_alt_en_str": null,
        "location_ru": "западный Фаэрун → Верхнее Подземье → Старый Шанатар",
        "name_alt_ru_str": null,
        "geog_extent_centroid_md": "31° 27′ 16″ N 010° 28′ 33″ W",
        "geog_extent_centroid_fria": "31° 27′ 16″ N 063° 57′ 26″ W",
        "geog_extent_area_sq_km": null,
        "geog_extent_area_sq_miles": null,
        "geog_extent_length_km": null,
        "geog_extent_length_miles": null,
        "geog_extent_perimeter_km": null,
        "geog_extent_perimeter_miles": null,
        "geog_extent_bbox_md": null,
        "geog_extent_bbox_fria": null,
        "name_it": "Rrinnoroth",
        "name_abb_it": null,
        "label_it": "Rrinnoroth",
        "descr_it": "Rrinnoroth è un ex insediamento nanico nel Sottosuolo sotto i Picchi Kuldin, questa città fantasma divenne la tana di un drago rosso entro la fine del XIV secolo DR.",
        "descr_html_it": null,
        "url_it": null,
        "location_it": "Faerûn occidentale → Upperdark → Antico Shanatar",
        "name_alt_it_str": null,
        "topical_tags": "underdark, ghost_town, dragon_lair, dwarven_settlement, ruins",
        "related_location_tags": "Shanatar, Kuldin Peaks, Tethyr, Drakkalor, Lands of Intrigue",
        "related_cultures_tags": "shield dwarves",
        "related_factions_tags": ""
      },
      "geometry": {
        "type": "MultiPoint",
        "coordinates": [
          [
            -63.957447713748614,
            31.454686215565598
          ]
        ]
      }
    },
    {
      "type": "Feature",
      "properties": {
        "uuid": "a13d45b9-2e67-4dbd-ac19-b9dbade0ce25",
        "layer_id": "udk_civ_important_sites_pt",
        "timeframe": null,
        "feature_class": "Other",
        "feature_rank": 5,
        "is_visible": true,
        "is_labeled": true,
        "needs_review": false,
        "review_notes": "exclude from wiki link auto-ageneration",
        "img_url": null,
        "last_edited": "2026-07-13",
        "last_editor": "postgres",
        "name_en": "Rootstalk",
        "name_ru": "Корнестой",
        "name_abb_en": null,
        "name_abb_ru": null,
        "label_en": "Rootstalk",
        "label_ru": "Корнестой",
        "descr_en": null,
        "descr_ru": null,
        "descr_html_en": "<!DOCTYPE HTML PUBLIC \"-//W3C//DTD HTML 4.0//EN\" \"http://www.w3.org/TR/REC-html40/strict.dtd\">\n<html><head><meta name=\"qrichtext\" content=\"1\" /><style type=\"text/css\">\np, li { white-space: pre-wrap; }\n</style></head><body style=\" font-family:'MS Shell Dlg 2'; font-size:10pt; font-weight:400; font-style:normal;\">\n<p style=\" margin-top:0px; margin-bottom:0px; margin-left:0px; margin-right:0px; -qt-block-indent:0; text-indent:0px;\">()</p></body></html>",
        "descr_html_ru": "<!DOCTYPE HTML PUBLIC \"-//W3C//DTD HTML 4.0//EN\" \"http://www.w3.org/TR/REC-html40/strict.dtd\">\n<html><head><meta name=\"qrichtext\" content=\"1\" /><style type=\"text/css\">\np, li { white-space: pre-wrap; }\n</style></head><body style=\" font-family:'MS Shell Dlg 2'; font-size:10pt; font-weight:400; font-style:normal;\">\n<p style=\" margin-top:0px; margin-bottom:0px; margin-left:0px; margin-right:0px; -qt-block-indent:0; text-indent:0px;\">()</p></body></html>",
        "url_en": null,
        "url_ru": null,
        "source_name": "WotC Underdark 3e",
        "source_url": "https://forgottenrealms.fandom.com/wiki/Underdark_(sourcebook)",
        "dnd_editions_str": "3e, 5e",
        "feature_levels_str": "Middledark",
        "extra_str": null,
        "location_en": "southern Faerûn → Middledark → Great Bhaerynden",
        "name_alt_en_str": null,
        "location_ru": "южный Фаэрун → Среднее Подземье → Великий Бхаэринден",
        "name_alt_ru_str": null,
        "geog_extent_centroid_md": "19° 04′ 45″ N 001° 14′ 18″ E",
        "geog_extent_centroid_fria": "19° 04′ 45″ N 052° 14′ 35″ W",
        "geog_extent_area_sq_km": null,
        "geog_extent_area_sq_miles": null,
        "geog_extent_length_km": null,
        "geog_extent_length_miles": null,
        "geog_extent_perimeter_km": null,
        "geog_extent_perimeter_miles": null,
        "geog_extent_bbox_md": null,
        "geog_extent_bbox_fria": null,
        "name_it": "Rootstalk",
        "name_abb_it": null,
        "label_it": "Rootstalk",
        "descr_it": null,
        "descr_html_it": null,
        "url_it": null,
        "location_it": "Faerûn meridionale → Middledark → Grande Bhaerynden",
        "name_alt_it_str": null,
        "topical_tags": "",
        "related_location_tags": "",
        "related_cultures_tags": "",
        "related_factions_tags": ""
      },
      "geometry": {
        "type": "MultiPoint",
        "coordinates": [
          [
            -52.243107268178306,
            19.079377778423353
          ]
        ]
      }
    },
    {
      "type": "Feature",
      "properties": {
        "uuid": "b1f8024c-b6e8-4376-953a-dc943b2c1a70",
        "layer_id": "udk_civ_important_sites_pt",
        "timeframe": null,
        "feature_class": "Cave",
        "feature_rank": 5,
        "is_visible": true,
        "is_labeled": true,
        "needs_review": false,
        "review_notes": null,
        "img_url": null,
        "last_edited": "2026-07-14",
        "last_editor": "postgres",
        "name_en": "Nuur Throth",
        "name_ru": "Нуур Трот",
        "name_abb_en": null,
        "name_abb_ru": null,
        "label_en": "Nuur Throth",
        "label_ru": "Нуур Трот",
        "descr_en": "A cave in the Lowerdark beneath the Sword Mountains, featuring wizard fire, sussur trees, and a central black iron ore earth node linked to six others across northern Faerûn.",
        "descr_ru": "Пещера в Нижних Тёмных Землях под Мечевыми Горами, содержащая магический огонь, деревья суссур и центральный узел земли из чёрной железной руды, связанный с шестью другими узлами по всему северному Фаэруну.",
        "descr_html_en": "<!DOCTYPE HTML PUBLIC \"-//W3C//DTD HTML 4.0//EN\" \"http://www.w3.org/TR/REC-html40/strict.dtd\">\n<html><head><meta name=\"qrichtext\" content=\"1\" /><style type=\"text/css\">\np, li { white-space: pre-wrap; }\n</style></head><body style=\" font-family:'MS Shell Dlg 2'; font-size:10pt; font-weight:400; font-style:normal;\">\n<p style=\" margin-top:0px; margin-bottom:0px; margin-left:0px; margin-right:0px; -qt-block-indent:0; text-indent:0px;\">()</p></body></html>",
        "descr_html_ru": "<!DOCTYPE HTML PUBLIC \"-//W3C//DTD HTML 4.0//EN\" \"http://www.w3.org/TR/REC-html40/strict.dtd\">\n<html><head><meta name=\"qrichtext\" content=\"1\" /><style type=\"text/css\">\np, li { white-space: pre-wrap; }\n</style></head><body style=\" font-family:'MS Shell Dlg 2'; font-size:10pt; font-weight:400; font-style:normal;\">\n<p style=\" margin-top:0px; margin-bottom:0px; margin-left:0px; margin-right:0px; -qt-block-indent:0; text-indent:0px;\">()</p></body></html>",
        "url_en": "https://forgottenrealms.fandom.com/wiki/Nuur_Throth",
        "url_ru": null,
        "source_name": "WotC Underdark 3e",
        "source_url": "https://forgottenrealms.fandom.com/wiki/Underdark_(sourcebook)",
        "dnd_editions_str": "3e, 5e",
        "feature_levels_str": "Lowerdark",
        "extra_str": "topical_tags: [\"cave\", \"lowerdark\", \"earth_node\", \"wizard_fire\", \"sussur_tree\", \"teleportation_network\"] | related_location_tags: [\"Lowerdark\", \"Sword Mountains\", \"Northdark\", \"Gauntlgrym\", \"Icewind Dale\", \"Kryptgarden Forest\"]",
        "location_en": "north-western Faerûn → Lowerdark → Northdark",
        "name_alt_en_str": "Great Door",
        "location_ru": "северо-западный Фаэрун → Нижнее Подземье → Нортдарк",
        "name_alt_ru_str": "Великие Врата",
        "geog_extent_centroid_md": "50° 15′ 43″ N 022° 23′ 52″ W",
        "geog_extent_centroid_fria": "50° 15′ 43″ N 075° 52′ 46″ W",
        "geog_extent_area_sq_km": null,
        "geog_extent_area_sq_miles": null,
        "geog_extent_length_km": null,
        "geog_extent_length_miles": null,
        "geog_extent_perimeter_km": null,
        "geog_extent_perimeter_miles": null,
        "geog_extent_bbox_md": null,
        "geog_extent_bbox_fria": null,
        "name_it": "Nuur Throth",
        "name_abb_it": null,
        "label_it": "Nuur Throth",
        "descr_it": "Nuur Throth è una grotta nel Lowerdark sotto le Montagne delle Spade, con fuoco da mago, alberi sussur e un nodo centrale di minerale di ferro nero collegato ad altri sei in tutto il Faerûn settentrionale.",
        "descr_html_it": null,
        "url_it": null,
        "location_it": "Faerûn nord-occidentale → Lowerdark → Sottosuolo Settentrionale",
        "name_alt_it_str": "La Grande Porta",
        "topical_tags": "cave, lowerdark, earth_node, wizard_fire, sussur_tree, teleportation_network",
        "related_location_tags": "Lowerdark, Sword Mountains, Northdark, Gauntlgrym, Icewind Dale, Kryptgarden Forest",
        "related_cultures_tags": "",
        "related_factions_tags": ""
      },
      "geometry": {
        "type": "MultiPoint",
        "coordinates": [
          [
            -75.87948127708734,
            50.26198380148043
          ]
        ]
      }
    },
    {
      "type": "Feature",
      "properties": {
        "uuid": "b8690d90-5ec1-406d-84e2-a0574688c761",
        "layer_id": "udk_civ_important_sites_pt",
        "timeframe": null,
        "feature_class": "Ruins",
        "feature_rank": 5,
        "is_visible": true,
        "is_labeled": true,
        "needs_review": false,
        "review_notes": "exclude from wiki link auto-ageneration",
        "img_url": null,
        "last_edited": "2026-07-13",
        "last_editor": "postgres",
        "name_en": "Vault of Congiured Madness",
        "name_ru": "Хранилище Призванного Безумия",
        "name_abb_en": null,
        "name_abb_ru": null,
        "label_en": "Vault of Congiured Madness",
        "label_ru": "Хранилище Призванного Безумия",
        "descr_en": null,
        "descr_ru": null,
        "descr_html_en": "<!DOCTYPE HTML PUBLIC \"-//W3C//DTD HTML 4.0//EN\" \"http://www.w3.org/TR/REC-html40/strict.dtd\">\n<html><head><meta name=\"qrichtext\" content=\"1\" /><style type=\"text/css\">\np, li { white-space: pre-wrap; }\n</style></head><body style=\" font-family:'MS Shell Dlg 2'; font-size:10pt; font-weight:400; font-style:normal;\">\n<p style=\" margin-top:0px; margin-bottom:0px; margin-left:0px; margin-right:0px; -qt-block-indent:0; text-indent:0px;\">()</p></body></html>",
        "descr_html_ru": "<!DOCTYPE HTML PUBLIC \"-//W3C//DTD HTML 4.0//EN\" \"http://www.w3.org/TR/REC-html40/strict.dtd\">\n<html><head><meta name=\"qrichtext\" content=\"1\" /><style type=\"text/css\">\np, li { white-space: pre-wrap; }\n</style></head><body style=\" font-family:'MS Shell Dlg 2'; font-size:10pt; font-weight:400; font-style:normal;\">\n<p style=\" margin-top:0px; margin-bottom:0px; margin-left:0px; margin-right:0px; -qt-block-indent:0; text-indent:0px;\">()</p></body></html>",
        "url_en": null,
        "url_ru": null,
        "source_name": "WotC Underdark 3e",
        "source_url": "https://forgottenrealms.fandom.com/wiki/Underdark_(sourcebook)",
        "dnd_editions_str": "3e, 5e",
        "feature_levels_str": "Upperdark",
        "extra_str": null,
        "location_en": "central Faerûn → Upperdark → Darklands",
        "name_alt_en_str": null,
        "location_ru": "центральный Фаэрун → Верхнее Подземье → Тёмные Земли",
        "name_alt_ru_str": null,
        "geog_extent_centroid_md": "28° 16′ 35″ N 000° 44′ 10″ E",
        "geog_extent_centroid_fria": "28° 16′ 35″ N 052° 44′ 42″ W",
        "geog_extent_area_sq_km": null,
        "geog_extent_area_sq_miles": null,
        "geog_extent_length_km": null,
        "geog_extent_length_miles": null,
        "geog_extent_perimeter_km": null,
        "geog_extent_perimeter_miles": null,
        "geog_extent_bbox_md": null,
        "geog_extent_bbox_fria": null,
        "name_it": "Volta della Follia Evocata",
        "name_abb_it": null,
        "label_it": "Volta della Follia Evocata",
        "descr_it": null,
        "descr_html_it": null,
        "url_it": null,
        "location_it": "Faerûn centrale → Upperdark → Terre Oscure",
        "name_alt_it_str": null,
        "topical_tags": "",
        "related_location_tags": "",
        "related_cultures_tags": "",
        "related_factions_tags": ""
      },
      "geometry": {
        "type": "MultiPoint",
        "coordinates": [
          [
            -52.74522250245452,
            28.276435587205995
          ]
        ]
      }
    },
    {
      "type": "Feature",
      "properties": {
        "uuid": "bad29a85-057e-4347-b6a5-0fb12028347e",
        "layer_id": "udk_civ_important_sites_pt",
        "timeframe": null,
        "feature_class": "Ruins",
        "feature_rank": 5,
        "is_visible": true,
        "is_labeled": true,
        "needs_review": false,
        "review_notes": null,
        "img_url": null,
        "last_edited": "2026-07-14",
        "last_editor": "postgres",
        "name_en": "Tumulus",
        "name_ru": "Тумулус",
        "name_abb_en": null,
        "name_abb_ru": null,
        "label_en": "Tumulus",
        "label_ru": "Тумулус",
        "descr_en": "An ancient ovoid stone structure partially exposed in a cavern of the Northdark, carved with death-related symbols and glyphs, some bearing lethal spells. Its origin and purpose are unknown, but it predates the elven realm of Illefarn.",
        "descr_ru": "Древнее овальное каменное сооружение, частично обнажённое в пещере Норддарка, покрытое резными символами и глифами смерти, некоторые из которых содержат смертельные заклинания. Его происхождение и назначение неизвестны, но оно старше эльфийского королевства Иллефарн.",
        "descr_html_en": "<!DOCTYPE HTML PUBLIC \"-//W3C//DTD HTML 4.0//EN\" \"http://www.w3.org/TR/REC-html40/strict.dtd\">\n<html><head><meta name=\"qrichtext\" content=\"1\" /><style type=\"text/css\">\np, li { white-space: pre-wrap; }\n</style></head><body style=\" font-family:'MS Shell Dlg 2'; font-size:10pt; font-weight:400; font-style:normal;\">\n<p style=\" margin-top:0px; margin-bottom:0px; margin-left:0px; margin-right:0px; -qt-block-indent:0; text-indent:0px;\">()</p></body></html>",
        "descr_html_ru": "<!DOCTYPE HTML PUBLIC \"-//W3C//DTD HTML 4.0//EN\" \"http://www.w3.org/TR/REC-html40/strict.dtd\">\n<html><head><meta name=\"qrichtext\" content=\"1\" /><style type=\"text/css\">\np, li { white-space: pre-wrap; }\n</style></head><body style=\" font-family:'MS Shell Dlg 2'; font-size:10pt; font-weight:400; font-style:normal;\">\n<p style=\" margin-top:0px; margin-bottom:0px; margin-left:0px; margin-right:0px; -qt-block-indent:0; text-indent:0px;\">()</p></body></html>",
        "url_en": "https://forgottenrealms.fandom.com/wiki/Tumulus",
        "url_ru": null,
        "source_name": "WotC Underdark 3e",
        "source_url": "https://forgottenrealms.fandom.com/wiki/Underdark_(sourcebook)",
        "dnd_editions_str": "3e, 5e",
        "feature_levels_str": "Middledark",
        "extra_str": "topical_tags: [\"ancient\", \"stone\", \"ovoid\", \"glyphs\", \"death\", \"spells\", \"underdark\", \"cavern\", \"unknown\"] | related_location_tags: [\"Northdark\", \"Underdark\", \"Waterdeep\", \"middledark\", \"Illefarn\"]",
        "location_en": "western Faerûn → Middledark → Northdark",
        "name_alt_en_str": null,
        "location_ru": "западный Фаэрун → Среднее Подземье → Нортдарк",
        "name_alt_ru_str": null,
        "geog_extent_centroid_md": "43° 04′ 05″ N 018° 10′ 47″ W",
        "geog_extent_centroid_fria": "43° 04′ 05″ N 071° 39′ 40″ W",
        "geog_extent_area_sq_km": null,
        "geog_extent_area_sq_miles": null,
        "geog_extent_length_km": null,
        "geog_extent_length_miles": null,
        "geog_extent_perimeter_km": null,
        "geog_extent_perimeter_miles": null,
        "geog_extent_bbox_md": null,
        "geog_extent_bbox_fria": null,
        "name_it": "Tumulo",
        "name_abb_it": null,
        "label_it": "Tumulo",
        "descr_it": "Il Tumulo è un'antica struttura di pietra ovoidale parzialmente esposta in una caverna del Northdark, scolpita con simboli e glifi legati alla morte, alcuni dei quali portano incantesimi letali. La sua origine e il suo scopo sono sconosciuti, ma è antecedente al regno elfico di Illefarn.",
        "descr_html_it": null,
        "url_it": null,
        "location_it": "Faerûn occidentale → Middledark → Sottosuolo Settentrionale",
        "name_alt_it_str": null,
        "topical_tags": "ancient, stone, ovoid, glyphs, death, spells, underdark, cavern, unknown",
        "related_location_tags": "Northdark, Underdark, Waterdeep, middledark, Illefarn",
        "related_cultures_tags": "",
        "related_factions_tags": ""
      },
      "geometry": {
        "type": "MultiPoint",
        "coordinates": [
          [
            -71.6612527016316,
            43.06814915921816
          ]
        ]
      }
    },
    {
      "type": "Feature",
      "properties": {
        "uuid": "d610a7aa-0c52-46b0-b30d-86ef5cf7e9ad",
        "layer_id": "udk_civ_important_sites_pt",
        "timeframe": null,
        "feature_class": "Ruins",
        "feature_rank": 5,
        "is_visible": true,
        "is_labeled": true,
        "needs_review": false,
        "review_notes": null,
        "img_url": null,
        "last_edited": "2026-07-14",
        "last_editor": "postgres",
        "name_en": "Gauntlgrym",
        "name_ru": "Гонтлгрим",
        "name_abb_en": null,
        "name_abb_ru": null,
        "label_en": "Gauntlgrym",
        "label_ru": "Гонтлгрим",
        "descr_en": "An ancient dwarven city built around mines to harness a primordial for metalwork, located beneath the Crags near Neverwinter. It served as the capital of Delzoun and changed hands among dwarves, mind flayers, duergar, drow, and others over millennia before being reclaimed by dwarves in the late 15th century DR.",
        "descr_ru": "Древний дварфийский город, построенный вокруг шахт для использования первозданного в металлообработке, расположенный под Утёсами близ Невервинтера. Служил столицей Дельзуна и переходил из рук в руки между дварфами, иллитидами, дуэргарами, дроу и другими на протяжении тысячелетий, прежде чем был отвоёван дварфами в конце 15 века ЛД.",
        "descr_html_en": "<!DOCTYPE HTML PUBLIC \"-//W3C//DTD HTML 4.0//EN\" \"http://www.w3.org/TR/REC-html40/strict.dtd\">\n<html><head><meta name=\"qrichtext\" content=\"1\" /><style type=\"text/css\">\np, li { white-space: pre-wrap; }\n</style></head><body style=\" font-family:'MS Shell Dlg 2'; font-size:10pt; font-weight:400; font-style:normal;\">\n<p style=\" margin-top:0px; margin-bottom:0px; margin-left:0px; margin-right:0px; -qt-block-indent:0; text-indent:0px;\">()</p></body></html>",
        "descr_html_ru": "<!DOCTYPE HTML PUBLIC \"-//W3C//DTD HTML 4.0//EN\" \"http://www.w3.org/TR/REC-html40/strict.dtd\">\n<html><head><meta name=\"qrichtext\" content=\"1\" /><style type=\"text/css\">\np, li { white-space: pre-wrap; }\n</style></head><body style=\" font-family:'MS Shell Dlg 2'; font-size:10pt; font-weight:400; font-style:normal;\">\n<p style=\" margin-top:0px; margin-bottom:0px; margin-left:0px; margin-right:0px; -qt-block-indent:0; text-indent:0px;\">()</p></body></html>",
        "url_en": "https://forgottenrealms.fandom.com/wiki/Gauntlgrym",
        "url_ru": null,
        "source_name": "WotC Underdark 3e",
        "source_url": "https://forgottenrealms.fandom.com/wiki/Underdark_(sourcebook)",
        "dnd_editions_str": "3e, 5e",
        "feature_levels_str": "Middledark",
        "extra_str": "topical_tags: [\"city\", \"dwarven\", \"underdark\", \"primordial\", \"forge\", \"delzoun\", \"mine\", \"subterranean\"] | related_cultures_tags: [\"dwarves\", \"humans\", \"elves\", \"gnomes\", \"drow\", \"illithids\", \"duergar\", \"Netherese\"] | related_factions_tags: [\"Delzoun\", \"Clan Goldspire\", \"Knights of Myth Drannor\", \"Company of the Gryphon\", \"Hargrath\", \"Abolethic Sovereignty\", \"House Xorlarrin\", \"Bregan D'aerthe\"] | related_location_tags: [\"Sword Coast North\", \"Northdark\", \"Northwest Faerûn\", \"Neverwinter\", \"River Dessarin\", \"Valley of Khedrun\", \"Savage Frontier\", \"Underdark\"]",
        "location_en": "north-western Faerûn → Middledark → Northdark",
        "name_alt_en_str": "Q'Xorlarrin",
        "location_ru": "северо-западный Фаэрун → Среднее Подземье → Нортдарк",
        "name_alt_ru_str": "К'Ксорларрин",
        "geog_extent_centroid_md": "50° 49′ 17″ N 021° 55′ 48″ W",
        "geog_extent_centroid_fria": "50° 49′ 17″ N 075° 24′ 42″ W",
        "geog_extent_area_sq_km": null,
        "geog_extent_area_sq_miles": null,
        "geog_extent_length_km": null,
        "geog_extent_length_miles": null,
        "geog_extent_perimeter_km": null,
        "geog_extent_perimeter_miles": null,
        "geog_extent_bbox_md": null,
        "geog_extent_bbox_fria": null,
        "name_it": "Gauntlgrym",
        "name_abb_it": null,
        "label_it": "Gauntlgrym",
        "descr_it": "Gauntlgrym è un'antica città nanica costruita attorno a miniere per sfruttare un primordiale per la lavorazione dei metalli, situata sotto i Crags vicino a Neverwinter. Servì come capitale di Delzoun e passò di mano tra nani, mind flayer, duergar, drow e altri nel corso dei millenni prima di essere reclamata dai nani alla fine del XV secolo DR.",
        "descr_html_it": null,
        "url_it": null,
        "location_it": "Faerûn nord-occidentale → Middledark → Sottosuolo Settentrionale",
        "name_alt_it_str": "Q'Xorlarrin",
        "topical_tags": "city, dwarven, underdark, primordial, forge, delzoun, mine, subterranean",
        "related_location_tags": "Sword Coast North, Northdark, Northwest Faerûn, Neverwinter, River Dessarin, Valley of Khedrun, Savage Frontier, Underdark",
        "related_cultures_tags": "dwarves, humans, elves, gnomes, drow, illithids, duergar, Netherese",
        "related_factions_tags": "Delzoun, Clan Goldspire, Knights of Myth Drannor, Company of the Gryphon, Hargrath, Abolethic Sovereignty, House Xorlarrin, Bregan D'aerthe"
      },
      "geometry": {
        "type": "MultiPoint",
        "coordinates": [
          [
            -75.41174767408911,
            50.821642390130954
          ]
        ]
      }
    },
    {
      "type": "Feature",
      "properties": {
        "uuid": "db74ed6d-42e3-4795-9036-ea1e15504767",
        "layer_id": "udk_civ_important_sites_pt",
        "timeframe": null,
        "feature_class": "Ruins",
        "feature_rank": 5,
        "is_visible": true,
        "is_labeled": true,
        "needs_review": false,
        "review_notes": null,
        "img_url": null,
        "last_edited": "2026-07-14",
        "last_editor": "postgres",
        "name_en": "Dolblunde",
        "name_ru": "Долблунд",
        "name_abb_en": null,
        "name_abb_ru": null,
        "label_en": "Dolblunde",
        "label_ru": "Долблунд",
        "descr_en": "A former gnomish city in the upper Underdark beneath the Sword Coast North, abandoned by the mid-to-late 14th century DR and later turned into the lair of a black dracolich. The city includes a section known as the Hanging City, with suspended platforms over a lava river. It was founded in 232 DR by rock and deep gnome clans, sacked by orcs in 614 DR, and attacked by Urdlen worshipers in 698 DR. By the late 15th century DR, it was the site of a quest to retrieve a magical helmet.",
        "descr_ru": "Бывший гномий город в верхнем Подземье под Побережьем Мечей Севера, заброшенный к середине-концу 14 века ЛД и позже превращённый в логово чёрного драко-лича. Город включает секцию, известную как Висячий Город, с подвесными платформами над рекой лавы. Основан в 232 ЛД кланами скальных и глубинных гномов, разграблен орками в 614 ЛД и атакован поклонниками Урдлена в 698 ЛД. К концу 15 века ЛД был местом квеста по возвращению магического шлема.",
        "descr_html_en": "<!DOCTYPE HTML PUBLIC \"-//W3C//DTD HTML 4.0//EN\" \"http://www.w3.org/TR/REC-html40/strict.dtd\">\n<html><head><meta name=\"qrichtext\" content=\"1\" /><style type=\"text/css\">\np, li { white-space: pre-wrap; }\n</style></head><body style=\" font-family:'MS Shell Dlg 2'; font-size:10pt; font-weight:400; font-style:normal;\">\n<p style=\" margin-top:0px; margin-bottom:0px; margin-left:0px; margin-right:0px; -qt-block-indent:0; text-indent:0px;\">()</p></body></html>",
        "descr_html_ru": "<!DOCTYPE HTML PUBLIC \"-//W3C//DTD HTML 4.0//EN\" \"http://www.w3.org/TR/REC-html40/strict.dtd\">\n<html><head><meta name=\"qrichtext\" content=\"1\" /><style type=\"text/css\">\np, li { white-space: pre-wrap; }\n</style></head><body style=\" font-family:'MS Shell Dlg 2'; font-size:10pt; font-weight:400; font-style:normal;\">\n<p style=\" margin-top:0px; margin-bottom:0px; margin-left:0px; margin-right:0px; -qt-block-indent:0; text-indent:0px;\">()</p></body></html>",
        "url_en": "https://forgottenrealms.fandom.com/wiki/Dolblunde",
        "url_ru": null,
        "source_name": "WotC Underdark 3e",
        "source_url": "https://forgottenrealms.fandom.com/wiki/Underdark_(sourcebook)",
        "dnd_editions_str": "2e, 3e, 5e",
        "feature_levels_str": "Upperdark",
        "extra_str": "topical_tags: [\"underdark\", \"ruins\", \"gnome\", \"dracolich\", \"lair\", \"hanging_city\", \"abandoned_city\", \"undead\"] | related_cultures_tags: [\"rock gnomes\", \"deep gnomes\", \"svirfneblin\"] | related_factions_tags: [\"Cult of the Dragon\", \"Zhentarim\", \"Thayan assassins\"] | related_location_tags: [\"Waterdeep\", \"Sword Coast North\", \"Kryptgarden Forest\", \"Sword Mountains\", \"River Dessarin\", \"Undermountain\", \"Mere of Dead Men\", \"Sea of Swords\"]",
        "location_en": "western Faerûn → Upperdark → Northdark",
        "name_alt_en_str": null,
        "location_ru": "западный Фаэрун → Верхнее Подземье → Нортдарк",
        "name_alt_ru_str": null,
        "geog_extent_centroid_md": "45° 16′ 34″ N 020° 03′ 32″ W",
        "geog_extent_centroid_fria": "45° 16′ 34″ N 073° 32′ 25″ W",
        "geog_extent_area_sq_km": null,
        "geog_extent_area_sq_miles": null,
        "geog_extent_length_km": null,
        "geog_extent_length_miles": null,
        "geog_extent_perimeter_km": null,
        "geog_extent_perimeter_miles": null,
        "geog_extent_bbox_md": null,
        "geog_extent_bbox_fria": null,
        "name_it": "Dolblunde",
        "name_abb_it": null,
        "label_it": "Dolblunde",
        "descr_it": "Dolblunde è un'ex città gnomesca nel Sottosuolo superiore sotto la Costa della Spada del Nord, abbandonata entro la metà-fine del XIV secolo DR e in seguito trasformata nella tana di un dracolich nero. La città include una sezione nota come Città Sospesa, con piattaforme sospese su un fiume di lava. Fu fondata nel 232 DR da clan di gnomi delle rocce e degli abissi, saccheggiata dagli orchi nel 614 DR e attaccata dai seguaci di Urdlen nel 698 DR. Entro la fine del XV secolo DR, era il sito di una missione per recuperare un elmo magico.",
        "descr_html_it": null,
        "url_it": null,
        "location_it": "Faerûn occidentale → Upperdark → Sottosuolo Settentrionale",
        "name_alt_it_str": null,
        "topical_tags": "underdark, ruins, gnome, dracolich, lair, hanging_city, abandoned_city, undead",
        "related_location_tags": "Waterdeep, Sword Coast North, Kryptgarden Forest, Sword Mountains, River Dessarin, Undermountain, Mere of Dead Men, Sea of Swords",
        "related_cultures_tags": "rock gnomes, deep gnomes, svirfneblin",
        "related_factions_tags": "Cult of the Dragon, Zhentarim, Thayan assassins"
      },
      "geometry": {
        "type": "MultiPoint",
        "coordinates": [
          [
            -73.5404852633511,
            45.27638632114165
          ]
        ]
      }
    },
    {
      "type": "Feature",
      "properties": {
        "uuid": "e7a5e7c8-e1d1-42fb-b013-35a97d0e6ded",
        "layer_id": "udk_civ_important_sites_pt",
        "timeframe": null,
        "feature_class": "Other",
        "feature_rank": 5,
        "is_visible": true,
        "is_labeled": true,
        "needs_review": false,
        "review_notes": null,
        "img_url": null,
        "last_edited": "2026-07-14",
        "last_editor": "postgres",
        "name_en": "House of Dark Consumption",
        "name_ru": "Дом Тёмного Поглощения",
        "name_abb_en": null,
        "name_abb_ru": null,
        "label_en": "House of Dark Consumption",
        "label_ru": "Дом Тёмного Поглощения",
        "descr_en": "A stone house in the Deep Wastes that is avoided by all creatures. Its interior is a dark, icy, extra-dimensional maze that rearranges itself, functions as a dead-magic zone, and dims light sources. Prolonged exposure risks insanity, and equipment decays rapidly inside.",
        "descr_ru": "Каменный дом в Глубинных Пустошах, которого избегают все существа. Его интерьер представляет собой тёмный, ледяной, внепространственный лабиринт, который перестраивается, функционирует как зона мёртвой магии и приглушает источники света. Длительное пребывание грозит безумием, а снаряжение внутри быстро разлагается.",
        "descr_html_en": "<!DOCTYPE HTML PUBLIC \"-//W3C//DTD HTML 4.0//EN\" \"http://www.w3.org/TR/REC-html40/strict.dtd\">\n<html><head><meta name=\"qrichtext\" content=\"1\" /><style type=\"text/css\">\np, li { white-space: pre-wrap; }\n</style></head><body style=\" font-family:'MS Shell Dlg 2'; font-size:10pt; font-weight:400; font-style:normal;\">\n<p style=\" margin-top:0px; margin-bottom:0px; margin-left:0px; margin-right:0px; -qt-block-indent:0; text-indent:0px;\">()</p></body></html>",
        "descr_html_ru": "<!DOCTYPE HTML PUBLIC \"-//W3C//DTD HTML 4.0//EN\" \"http://www.w3.org/TR/REC-html40/strict.dtd\">\n<html><head><meta name=\"qrichtext\" content=\"1\" /><style type=\"text/css\">\np, li { white-space: pre-wrap; }\n</style></head><body style=\" font-family:'MS Shell Dlg 2'; font-size:10pt; font-weight:400; font-style:normal;\">\n<p style=\" margin-top:0px; margin-bottom:0px; margin-left:0px; margin-right:0px; -qt-block-indent:0; text-indent:0px;\">()</p></body></html>",
        "url_en": "https://forgottenrealms.fandom.com/wiki/House_of_Dark_Consumption",
        "url_ru": null,
        "source_name": "WotC Underdark 3e",
        "source_url": "https://forgottenrealms.fandom.com/wiki/Underdark_(sourcebook)",
        "dnd_editions_str": "3e, 5e",
        "feature_levels_str": "Lowerdark",
        "extra_str": "topical_tags: [\"extra-dimensional\", \"dead-magic-zone\", \"maze\", \"underdark\", \"stone-house\", \"hazardous-location\"] | related_location_tags: [\"Deep Wastes\", \"Underdark\"]",
        "location_en": "central Faerûn → Lowerdark → Deep Wastes",
        "name_alt_en_str": null,
        "location_ru": "центральный Фаэрун → Нижнее Подземье → Глубинные Пустоши",
        "name_alt_ru_str": null,
        "geog_extent_centroid_md": "40° 18′ 55″ N 002° 42′ 22″ E",
        "geog_extent_centroid_fria": "40° 18′ 55″ N 050° 46′ 31″ W",
        "geog_extent_area_sq_km": null,
        "geog_extent_area_sq_miles": null,
        "geog_extent_length_km": null,
        "geog_extent_length_miles": null,
        "geog_extent_perimeter_km": null,
        "geog_extent_perimeter_miles": null,
        "geog_extent_bbox_md": null,
        "geog_extent_bbox_fria": null,
        "name_it": "Casa del Buio Consumo",
        "name_abb_it": null,
        "label_it": "Casa del Buio Consumo",
        "descr_it": "La Casa del Buio Consumo è una casa di pietra nei Deep Wastes che viene evitata da tutte le creature. Il suo interno è un oscuro, ghiacciato labirinto extradimensionale che si riorganizza, funge da zona di magia morta e attenua le fonti di luce. L'esposizione prolungata rischia la follia e l'equipaggiamento si deteriora rapidamente all'interno.",
        "descr_html_it": null,
        "url_it": null,
        "location_it": "Faerûn centrale → Lowerdark → Desolazioni Profonde",
        "name_alt_it_str": null,
        "topical_tags": "extra-dimensional, dead-magic-zone, maze, underdark, stone-house, hazardous-location",
        "related_location_tags": "Deep Wastes, Underdark",
        "related_cultures_tags": "",
        "related_factions_tags": ""
      },
      "geometry": {
        "type": "MultiPoint",
        "coordinates": [
          [
            -50.7753296805656,
            40.31529934269332
          ]
        ]
      }
    },
    {
      "type": "Feature",
      "properties": {
        "uuid": "f18567b7-29f9-4418-a7f7-8faafae39f2c",
        "layer_id": "udk_civ_important_sites_pt",
        "timeframe": null,
        "feature_class": "Ruins",
        "feature_rank": 5,
        "is_visible": true,
        "is_labeled": true,
        "needs_review": false,
        "review_notes": null,
        "img_url": null,
        "last_edited": "2026-07-14",
        "last_editor": "postgres",
        "name_en": "Chaulssin",
        "name_ru": "Чаулссин",
        "name_abb_en": null,
        "name_abb_ru": null,
        "label_en": "Chaulssin",
        "label_ru": "Чаулссин",
        "descr_en": "A drow city in the Underdark beneath the northern Rauvin Mountains, built on a stone spar over a deep abyss. It was conquered by shadow dragons and partially shifted into the Plane of Shadow, causing shadow-stuff and deadly creatures to permeate its streets. By the late 14th century DR, much of the city was abandoned, serving as the headquarters for the Jaezred Chaulssin organization.",
        "descr_ru": "Город дроу в Подземье под северными горами Раувин, построенный на каменном шпиле над глубокой пропастью. Был завоёван теневыми драконами и частично смещён в План Тени, в результате чего улицы наполнились теневой субстанцией и смертоносными существами. К концу 14 века ЛД большая часть города была заброшена, служа штаб-квартирой организации Джазред Чаулссин.",
        "descr_html_en": "<!DOCTYPE HTML PUBLIC \"-//W3C//DTD HTML 4.0//EN\" \"http://www.w3.org/TR/REC-html40/strict.dtd\">\n<html><head><meta name=\"qrichtext\" content=\"1\" /><style type=\"text/css\">\np, li { white-space: pre-wrap; }\n</style></head><body style=\" font-family:'MS Shell Dlg 2'; font-size:10pt; font-weight:400; font-style:normal;\">\n<p style=\" margin-top:0px; margin-bottom:0px; margin-left:0px; margin-right:0px; -qt-block-indent:0; text-indent:0px;\">()</p></body></html>",
        "descr_html_ru": "<!DOCTYPE HTML PUBLIC \"-//W3C//DTD HTML 4.0//EN\" \"http://www.w3.org/TR/REC-html40/strict.dtd\">\n<html><head><meta name=\"qrichtext\" content=\"1\" /><style type=\"text/css\">\np, li { white-space: pre-wrap; }\n</style></head><body style=\" font-family:'MS Shell Dlg 2'; font-size:10pt; font-weight:400; font-style:normal;\">\n<p style=\" margin-top:0px; margin-bottom:0px; margin-left:0px; margin-right:0px; -qt-block-indent:0; text-indent:0px;\">()</p></body></html>",
        "url_en": "https://forgottenrealms.fandom.com/wiki/Chaulssin",
        "url_ru": null,
        "source_name": "WotC Underdark 3e",
        "source_url": "https://forgottenrealms.fandom.com/wiki/Underdark_(sourcebook)",
        "dnd_editions_str": "3e, 5e",
        "feature_levels_str": "Middledark",
        "extra_str": "topical_tags: [\"underdark\", \"drow\", \"shadowdragon\", \"planarshadow\", \"abyss\", \"assassinorganization\", \"vhaeraun\", \"zekyl\", \"zarithra\", \"shadarkai\"] | related_cultures_tags: [\"drow\", \"zar'ithra\", \"zekyl\", \"draa'zekyl\", \"dark bear\", \"shadar-kai\"] | related_factions_tags: [\"Jaezred Chaulssin\", \"Clan Jaezred\", \"Clan Malaug\", \"Church of Vhaeraun\", \"House Jaezred\"] | related_location_tags: [\"Middledark\", \"Northdark\", \"Rauvin Mountains\", \"Plane of Shadow\", \"Chaul'mur'ssin\", \"Ched Nasad\", \"Menzoberranzan\", \"Eryndlyn\"]",
        "location_en": "north-western Faerûn → Middledark → Northdark",
        "name_alt_en_str": "City of Wyrmshadows",
        "location_ru": "северо-западный Фаэрун → Среднее Подземье → Нортдарк",
        "name_alt_ru_str": "Город Змий-Теней",
        "geog_extent_centroid_md": "51° 34′ 56″ N 013° 00′ 47″ W",
        "geog_extent_centroid_fria": "51° 34′ 56″ N 066° 29′ 40″ W",
        "geog_extent_area_sq_km": null,
        "geog_extent_area_sq_miles": null,
        "geog_extent_length_km": null,
        "geog_extent_length_miles": null,
        "geog_extent_perimeter_km": null,
        "geog_extent_perimeter_miles": null,
        "geog_extent_bbox_md": null,
        "geog_extent_bbox_fria": null,
        "name_it": "Chaulssin",
        "name_abb_it": null,
        "label_it": "Chaulssin",
        "descr_it": "Chaulssin è una città drow nel Sottosuolo sotto i Monti Rauvin settentrionali, costruita su uno sperone di pietra sopra un profondo abisso. Fu conquistata da draghi d'ombra e parzialmente spostata nel Piano dell'Ombra, causando la permeazione di sostanza d'ombra e creature letali nelle sue strade. Entro la fine del XIV secolo DR, gran parte della città era abbandonata e fungeva da quartier generale dell'organizzazione Jaezred Chaulssin.",
        "descr_html_it": null,
        "url_it": null,
        "location_it": "Faerûn nord-occidentale → Middledark → Sottosuolo Settentrionale",
        "name_alt_it_str": "Città delle Ombre dei Draghi",
        "topical_tags": "underdark, drow, shadowdragon, planarshadow, abyss, assassinorganization, vhaeraun, zekyl, zarithra, shadarkai",
        "related_location_tags": "Middledark, Northdark, Rauvin Mountains, Plane of Shadow, Chaul'mur'ssin, Ched Nasad, Menzoberranzan, Eryndlyn",
        "related_cultures_tags": "drow, zar'ithra, zekyl, draa'zekyl, dark bear, shadar-kai",
        "related_factions_tags": "Jaezred Chaulssin, Clan Jaezred, Clan Malaug, Church of Vhaeraun, House Jaezred"
      },
      "geometry": {
        "type": "MultiPoint",
        "coordinates": [
          [
            -66.49456929118533,
            51.58243686545388
          ]
        ]
      }
    },
    {
      "type": "Feature",
      "properties": {
        "uuid": "fe0bbeb8-d013-4687-be9c-ef3746ee0b31",
        "layer_id": "udk_civ_important_sites_pt",
        "timeframe": null,
        "feature_class": "Ruins",
        "feature_rank": 5,
        "is_visible": true,
        "is_labeled": true,
        "needs_review": false,
        "review_notes": null,
        "img_url": null,
        "last_edited": "2026-07-14",
        "last_editor": "postgres",
        "name_en": "Ammarindar",
        "name_ru": "Аммариндар",
        "name_abb_en": null,
        "name_abb_ru": null,
        "label_en": "Ammarindar",
        "label_ru": "Аммариндар",
        "descr_en": "A settlement in the Northdark region of the Underdark, originally a dwarven city that later fell to orcs and demons. By the late 15th century DR, it was inhabited by tanarukks and served as a link between Menzoberranzan and Ched Nasad.",
        "descr_ru": "Поселение в регионе Норддарк Подземья, первоначально дварфийский город, позже павший перед орками и демонами. К концу 15 века ЛД был населён танарукками и служил связующим звеном между Мензоберранзаном и Чед Насадом.",
        "descr_html_en": "<!DOCTYPE HTML PUBLIC \"-//W3C//DTD HTML 4.0//EN\" \"http://www.w3.org/TR/REC-html40/strict.dtd\">\n<html><head><meta name=\"qrichtext\" content=\"1\" /><style type=\"text/css\">\np, li { white-space: pre-wrap; }\n</style></head><body style=\" font-family:'MS Shell Dlg 2'; font-size:10pt; font-weight:400; font-style:normal;\">\n<p style=\" margin-top:0px; margin-bottom:0px; margin-left:0px; margin-right:0px; -qt-block-indent:0; text-indent:0px;\">()</p></body></html>",
        "descr_html_ru": "<!DOCTYPE HTML PUBLIC \"-//W3C//DTD HTML 4.0//EN\" \"http://www.w3.org/TR/REC-html40/strict.dtd\">\n<html><head><meta name=\"qrichtext\" content=\"1\" /><style type=\"text/css\">\np, li { white-space: pre-wrap; }\n</style></head><body style=\" font-family:'MS Shell Dlg 2'; font-size:10pt; font-weight:400; font-style:normal;\">\n<p style=\" margin-top:0px; margin-bottom:0px; margin-left:0px; margin-right:0px; -qt-block-indent:0; text-indent:0px;\">()</p></body></html>",
        "url_en": "https://forgottenrealms.fandom.com/wiki/Ammarindar",
        "url_ru": null,
        "source_name": "WotC Underdark 3e",
        "source_url": "https://forgottenrealms.fandom.com/wiki/Underdark_(sourcebook)",
        "dnd_editions_str": "3e, 5e",
        "feature_levels_str": "Upperdark",
        "extra_str": "topical_tags: [\"underdark\", \"settlement\", \"ruined\", \"dwarven\", \"tanarukk\", \"underground\", \"cavern\"] | related_cultures_tags: [\"dwarves\", \"drow\", \"tanarukks\"] | related_factions_tags: [\"Scourged Legion\"] | related_location_tags: [\"Northdark\", \"Menzoberranzan\", \"Ched Nasad\", \"Delimbiyr Vale\", \"High Forest\", \"Fallen Lands\", \"Graypeak Mountains\", \"Hellgate Keep\"]",
        "location_en": "western Faerûn → Upperdark → Northdark",
        "name_alt_en_str": null,
        "location_ru": "западный Фаэрун → Верхнее Подземье → Нортдарк",
        "name_alt_ru_str": null,
        "geog_extent_centroid_md": "49° 40′ 04″ N 012° 01′ 38″ W",
        "geog_extent_centroid_fria": "49° 40′ 04″ N 065° 30′ 31″ W",
        "geog_extent_area_sq_km": null,
        "geog_extent_area_sq_miles": null,
        "geog_extent_length_km": null,
        "geog_extent_length_miles": null,
        "geog_extent_perimeter_km": null,
        "geog_extent_perimeter_miles": null,
        "geog_extent_bbox_md": null,
        "geog_extent_bbox_fria": null,
        "name_it": "Ammarindar",
        "name_abb_it": null,
        "label_it": "Ammarindar",
        "descr_it": "Ammarindar è un insediamento nella regione del Northdark del Sottosuolo, originariamente una città nanica che in seguito cadde in mano a orchi e demoni. Entro la fine del XV secolo DR, era abitata da tanarukk e fungeva da collegamento tra Menzoberranzan e Ched Nasad.",
        "descr_html_it": null,
        "url_it": null,
        "location_it": "Faerûn occidentale → Upperdark → Sottosuolo Settentrionale",
        "name_alt_it_str": null,
        "topical_tags": "underdark, settlement, ruined, dwarven, tanarukk, underground, cavern",
        "related_location_tags": "Northdark, Menzoberranzan, Ched Nasad, Delimbiyr Vale, High Forest, Fallen Lands, Graypeak Mountains, Hellgate Keep",
        "related_cultures_tags": "dwarves, drow, tanarukks",
        "related_factions_tags": "Scourged Legion"
      },
      "geometry": {
        "type": "MultiPoint",
        "coordinates": [
          [
            -65.5088585119947,
            49.66781272483933
          ]
        ]
      }
    }
  ]
}